Objectnummer,street,huisnummer,postcode,city,Country,Longitude,Latitude,maps_url,Province
2558891512,Dijk van Kyoto,,1705 RC,Heerhugowaard,Netherlands,4.8144687,52.6444721,"https://www.google.com/maps?q=52.6444721,4.8144687",North Holland
2558892207,Dijk van Kyoto,,1705 RC,Heerhugowaard,Netherlands,4.8141576,52.6446902,"https://www.google.com/maps?q=52.6446902,4.8141576",North Holland
2558892210,Dijk van Kyoto,,1705 RC,Heerhugowaard,Netherlands,4.8138625,52.6448758,"https://www.google.com/maps?q=52.6448758,4.8138625",North Holland
2558892213,Dijk van Kyoto,,1705 RC,Heerhugowaard,Netherlands,4.8135541,52.6450955,"https://www.google.com/maps?q=52.6450955,4.8135541",North Holland
6851215097,Teding van Berkhoutstraat,77,2032 LK,Haarlem,Netherlands,4.655932,52.3797364,"https://www.google.com/maps?q=52.3797364,4.655932",North Holland
6851215098,Teding van Berkhoutstraat,71A,2032 LK,Haarlem,Netherlands,4.6557999,52.3797818,"https://www.google.com/maps?q=52.3797818,4.6557999",North Holland
6868198281,Nieuweweg,24a,1687 BA,Wognum,Netherlands,5.0282876,52.6911245,"https://www.google.com/maps?q=52.6911245,5.0282876",North Holland
6868198282,Nieuweweg,24a,1687 BA,Wognum,Netherlands,5.0281173,52.6911245,"https://www.google.com/maps?q=52.6911245,5.0281173",North Holland
6868198283,Nieuweweg,24a,1687 BA,Wognum,Netherlands,5.0280395,52.6909738,"https://www.google.com/maps?q=52.6909738,5.0280395",North Holland
6868198284,Nieuweweg,24a,1687 BA,Wognum,Netherlands,5.0280469,52.6908778,"https://www.google.com/maps?q=52.6908778,5.0280469",North Holland
6868240585,Nieuweweg,24a,1687 BA,Wognum,Netherlands,5.0280228,52.6907413,"https://www.google.com/maps?q=52.6907413,5.0280228",North Holland
6932342364,Kapelweg,,1906 DM,Castricum,Netherlands,4.6856917,52.5803944,"https://www.google.com/maps?q=52.5803944,4.6856917",North Holland
6985774116,Sterrenpad,,2051 KR,Haarlem,Netherlands,4.6235633,52.3937659,"https://www.google.com/maps?q=52.3937659,4.6235633",North Holland
7177394651,Vosmaerstraat,93,2032 LC,Haarlem,Netherlands,4.6558122,52.3781548,"https://www.google.com/maps?q=52.3781548,4.6558122",North Holland
8825990242,,,1271 GL,Huizen,Netherlands,5.2427074,52.310559,"https://www.google.com/maps?q=52.310559,5.2427074",North Holland
9761185624,Havenplein,,1781 AB,Den Helder,Netherlands,4.7771644,52.9628704,"https://www.google.com/maps?q=52.9628704,4.7771644",North Holland
10802645245,Grensweg,386,1791 NP,Den Burg,Netherlands,4.7602974,53.0639515,"https://www.google.com/maps?q=53.0639515,4.7602974",North Holland
10920988289,Ruijslaan,81H,1796 AZ,De Koog,Netherlands,4.7562345,53.0886348,"https://www.google.com/maps?q=53.0886348,4.7562345",North Holland
10920988290,Ruijslaan,81J,1796 AZ,De Koog,Netherlands,4.7590019,53.0887729,"https://www.google.com/maps?q=53.0887729,4.7590019",North Holland
11042898282,Hollandseweg,4,1795 LE,De Cocksdorp,Netherlands,4.8652605,53.1438697,"https://www.google.com/maps?q=53.1438697,4.8652605",North Holland
11042948877,Pontweg,102,1791 LB,Den Burg,Netherlands,4.7868363,53.0557367,"https://www.google.com/maps?q=53.0557367,4.7868363",North Holland
11047777084,Stolpweg,1,1797 AW,Den Hoorn,Netherlands,4.7531904,53.0251295,"https://www.google.com/maps?q=53.0251295,4.7531904",North Holland
11047777085,De Naal,4,1797 AC,Den Hoorn,Netherlands,4.7525756,53.0252799,"https://www.google.com/maps?q=53.0252799,4.7525756",North Holland
11297584519,Tempelierweg,,1791 NR,Den Burg,Netherlands,4.7585099,53.0723034,"https://www.google.com/maps?q=53.0723034,4.7585099",North Holland
11297584520,Gerritslanderdijkje,18,1791 NR,Den Burg,Netherlands,4.7579022,53.070795,"https://www.google.com/maps?q=53.070795,4.7579022",North Holland
11297584524,Rozendijk,22C,1791 PE,Den Burg,Netherlands,4.7684075,53.0621228,"https://www.google.com/maps?q=53.0621228,4.7684075",North Holland
11919874023,Wemmingen,38,2151 RM,Nieuw-Vennep,Netherlands,4.6219664,52.2575968,"https://www.google.com/maps?q=52.2575968,4.6219664",North Holland
11919874024,Wemmingen,1,2151 RK,Nieuw-Vennep,Netherlands,4.6234321,52.258542,"https://www.google.com/maps?q=52.258542,4.6234321",North Holland
11919874025,Landei,23,2151 RE,Nieuw-Vennep,Netherlands,4.6222367,52.2588124,"https://www.google.com/maps?q=52.2588124,4.6222367",North Holland
11919874026,Wemmingen,10,2151 RH,Nieuw-Vennep,Netherlands,4.6210846,52.2580694,"https://www.google.com/maps?q=52.2580694,4.6210846",North Holland
11919874027,Wemmingen,9,2151 RE,Nieuw-Vennep,Netherlands,4.6221929,52.2582029,"https://www.google.com/maps?q=52.2582029,4.6221929",North Holland
11919874028,Wemmingen,19,2151 RE,Nieuw-Vennep,Netherlands,4.6219416,52.2586558,"https://www.google.com/maps?q=52.2586558,4.6219416",North Holland
11919874029,Landei,3,2151 SR,Nieuw-Vennep,Netherlands,4.6223715,52.2591667,"https://www.google.com/maps?q=52.2591667,4.6223715",North Holland
11919874030,Landei,9,2151 SR,Nieuw-Vennep,Netherlands,4.6230335,52.2588124,"https://www.google.com/maps?q=52.2588124,4.6230335",North Holland
11919874031,Wemmingen,1,2151 RE,Nieuw-Vennep,Netherlands,4.622647,52.2585983,"https://www.google.com/maps?q=52.2585983,4.622647",North Holland
11919874032,Wemmingen,5,2151 RH,Nieuw-Vennep,Netherlands,4.6214031,52.2579142,"https://www.google.com/maps?q=52.2579142,4.6214031",North Holland
11919874033,Wemmingen,12,2151 RK,Nieuw-Vennep,Netherlands,4.6236034,52.2579835,"https://www.google.com/maps?q=52.2579835,4.6236034",North Holland
11919874034,Wemmingen,16,2151 RH,Nieuw-Vennep,Netherlands,4.6207241,52.2582468,"https://www.google.com/maps?q=52.2582468,4.6207241",North Holland
11919874035,Landei,6,2151 SR,Nieuw-Vennep,Netherlands,4.6227639,52.2589583,"https://www.google.com/maps?q=52.2589583,4.6227639",North Holland
11919874036,Wemmingen,32,2151 RL,Nieuw-Vennep,Netherlands,4.622795,52.2575855,"https://www.google.com/maps?q=52.2575855,4.622795",North Holland
11919874037,Wemmingen,22,2151 RL,Nieuw-Vennep,Netherlands,4.6229675,52.2579628,"https://www.google.com/maps?q=52.2579628,4.6229675",North Holland
11919874038,Landei,7,2151 SR,Nieuw-Vennep,Netherlands,4.6227697,52.258816,"https://www.google.com/maps?q=52.258816,4.6227697",North Holland
11919874039,Wemmingen,21,2151 RL,Nieuw-Vennep,Netherlands,4.6228591,52.2579735,"https://www.google.com/maps?q=52.2579735,4.6228591",North Holland
11919874040,Wemmingen,13,2151 RH,Nieuw-Vennep,Netherlands,4.6209142,52.2581523,"https://www.google.com/maps?q=52.2581523,4.6209142",North Holland
11919874041,Wemmingen,37,2151 RM,Nieuw-Vennep,Netherlands,4.6218033,52.2576592,"https://www.google.com/maps?q=52.2576592,4.6218033",North Holland
11919874042,Wemmingen,8,2151 RE,Nieuw-Vennep,Netherlands,4.6222404,52.2582395,"https://www.google.com/maps?q=52.2582395,4.6222404",North Holland
11919874043,Wemmingen,23,2151 RL,Nieuw-Vennep,Netherlands,4.6230285,52.2579258,"https://www.google.com/maps?q=52.2579258,4.6230285",North Holland
11919874044,Wemmingen,23,2151 RL,Nieuw-Vennep,Netherlands,4.6229376,52.2578331,"https://www.google.com/maps?q=52.2578331,4.6229376",North Holland
11919874045,Landei,3,2151 SR,Nieuw-Vennep,Netherlands,4.6224249,52.2591372,"https://www.google.com/maps?q=52.2591372,4.6224249",North Holland
11919874046,Wemmingen,43,2151 RM,Nieuw-Vennep,Netherlands,4.6225429,52.2573053,"https://www.google.com/maps?q=52.2573053,4.6225429",North Holland
11919874047,Wemmingen,16,2151 RK,Nieuw-Vennep,Netherlands,4.6233479,52.2581568,"https://www.google.com/maps?q=52.2581568,4.6233479",North Holland
11919874048,Landei,5,2151 SR,Nieuw-Vennep,Netherlands,4.6226477,52.2590185,"https://www.google.com/maps?q=52.2590185,4.6226477",North Holland
11919874049,Landei,6,2151 SR,Nieuw-Vennep,Netherlands,4.6226993,52.2589871,"https://www.google.com/maps?q=52.2589871,4.6226993",North Holland
11919874050,Wemmingen,40,2151 RM,Nieuw-Vennep,Netherlands,4.6221948,52.2574787,"https://www.google.com/maps?q=52.2574787,4.6221948",North Holland
11919874051,Wemmingen,7,2151 RE,Nieuw-Vennep,Netherlands,4.6222999,52.2582875,"https://www.google.com/maps?q=52.2582875,4.6222999",North Holland
11919874052,Wemmingen,4,2151 RE,Nieuw-Vennep,Netherlands,4.6224607,52.2584657,"https://www.google.com/maps?q=52.2584657,4.6224607",North Holland
11919874053,Landei,1,2151 SR,Nieuw-Vennep,Netherlands,4.6221511,52.2592863,"https://www.google.com/maps?q=52.2592863,4.6221511",North Holland
11919874054,Landei,4,2151 SR,Nieuw-Vennep,Netherlands,4.6225838,52.259051,"https://www.google.com/maps?q=52.259051,4.6225838",North Holland
11919874055,Landei,2,2151 SR,Nieuw-Vennep,Netherlands,4.6223172,52.2591942,"https://www.google.com/maps?q=52.2591942,4.6223172",North Holland
11919874056,Wemmingen,31,2151 RL,Nieuw-Vennep,Netherlands,4.6228694,52.257551,"https://www.google.com/maps?q=52.257551,4.6228694",North Holland
11919874057,Landei,7,2151 SR,Nieuw-Vennep,Netherlands,4.6228169,52.2589277,"https://www.google.com/maps?q=52.2589277,4.6228169",North Holland
11919874058,Wemmingen,41,2151 RM,Nieuw-Vennep,Netherlands,4.6223153,52.2574191,"https://www.google.com/maps?q=52.2574191,4.6223153",North Holland
11919874059,Wemmingen,14,2151 RK,Nieuw-Vennep,Netherlands,4.6234668,52.2580576,"https://www.google.com/maps?q=52.2580576,4.6234668",North Holland
11919874060,Wemmingen,4,2151 RE,Nieuw-Vennep,Netherlands,4.6223991,52.2584913,"https://www.google.com/maps?q=52.2584913,4.6223991",North Holland
11919874061,Wemmingen,12,2151 RH,Nieuw-Vennep,Netherlands,4.6209661,52.2581219,"https://www.google.com/maps?q=52.2581219,4.6209661",North Holland
11919874062,Landei,4,2151 SR,Nieuw-Vennep,Netherlands,4.622535,52.2590761,"https://www.google.com/maps?q=52.2590761,4.622535",North Holland
11919874063,Wemmingen,25,2151 RL,Nieuw-Vennep,Netherlands,4.623136,52.2578272,"https://www.google.com/maps?q=52.2578272,4.623136",North Holland
11919874064,Wemmingen,6,2151 RK,Nieuw-Vennep,Netherlands,4.6237905,52.2583889,"https://www.google.com/maps?q=52.2583889,4.6237905",North Holland
11919874065,Landei,1,2151 SR,Nieuw-Vennep,Netherlands,4.6221197,52.2591823,"https://www.google.com/maps?q=52.2591823,4.6221197",North Holland
11919874066,Wemmingen,35,2151 RL,Nieuw-Vennep,Netherlands,4.6225549,52.2576817,"https://www.google.com/maps?q=52.2576817,4.6225549",North Holland
11919874067,Landei,3,2151 SR,Nieuw-Vennep,Netherlands,4.6224779,52.2591117,"https://www.google.com/maps?q=52.2591117,4.6224779",North Holland
11919874068,Wemmingen,11,2151 RH,Nieuw-Vennep,Netherlands,4.6210487,52.2580969,"https://www.google.com/maps?q=52.2580969,4.6210487",North Holland
11919885869,Wemmingen,19,2151 RJ,Nieuw-Vennep,Netherlands,4.6204934,52.2583177,"https://www.google.com/maps?q=52.2583177,4.6204934",North Holland
11919885870,Wemmingen,39,2151 RM,Nieuw-Vennep,Netherlands,4.6221079,52.2575437,"https://www.google.com/maps?q=52.2575437,4.6221079",North Holland
11919885871,Wemmingen,15,2151 RH,Nieuw-Vennep,Netherlands,4.6207732,52.258208,"https://www.google.com/maps?q=52.258208,4.6207732",North Holland
11919885872,Wemmingen,36,2151 RL,Nieuw-Vennep,Netherlands,4.6224879,52.2577094,"https://www.google.com/maps?q=52.2577094,4.6224879",North Holland
11919885873,Landei,24,2151 RE,Nieuw-Vennep,Netherlands,4.6222847,52.2588592,"https://www.google.com/maps?q=52.2588592,4.6222847",North Holland
11919885874,Landei,9,2151 SR,Nieuw-Vennep,Netherlands,4.6230984,52.2587832,"https://www.google.com/maps?q=52.2587832,4.6230984",North Holland
11919885875,Landei,3,2151 SR,Nieuw-Vennep,Netherlands,4.6223313,52.2590536,"https://www.google.com/maps?q=52.2590536,4.6223313",North Holland
11919885876,Wemmingen,9,2151 RK,Nieuw-Vennep,Netherlands,4.6239824,52.2582498,"https://www.google.com/maps?q=52.2582498,4.6239824",North Holland
11921572547,Vronen,34,2151 PC,Nieuw-Vennep,Netherlands,4.6256191,52.2599497,"https://www.google.com/maps?q=52.2599497,4.6256191",North Holland
11921572548,Landei,10,2151 SR,Nieuw-Vennep,Netherlands,4.6234573,52.2590749,"https://www.google.com/maps?q=52.2590749,4.6234573",North Holland
11921572549,Kreilerhof,32,2151 PJ,Nieuw-Vennep,Netherlands,4.62718,52.2607551,"https://www.google.com/maps?q=52.2607551,4.62718",North Holland
11921572550,Kreilerhof,29,2151 PJ,Nieuw-Vennep,Netherlands,4.6261063,52.2604724,"https://www.google.com/maps?q=52.2604724,4.6261063",North Holland
11921572551,Vronen,38,2151 PC,Nieuw-Vennep,Netherlands,4.6257322,52.2598887,"https://www.google.com/maps?q=52.2598887,4.6257322",North Holland
11921572552,Kreilerhof,19,2151 PJ,Nieuw-Vennep,Netherlands,4.6258161,52.2606309,"https://www.google.com/maps?q=52.2606309,4.6258161",North Holland
11921572553,Vronen,194,2151 PH,Nieuw-Vennep,Netherlands,4.6242349,52.2599559,"https://www.google.com/maps?q=52.2599559,4.6242349",North Holland
11921572554,Kreilerhof,24,2151 PJ,Nieuw-Vennep,Netherlands,4.6269013,52.2608605,"https://www.google.com/maps?q=52.2608605,4.6269013",North Holland
11921572555,Oddinkhem,9,2151 SP,Nieuw-Vennep,Netherlands,4.6218546,52.2597615,"https://www.google.com/maps?q=52.2597615,4.6218546",North Holland
11921572556,Vronen,46,2151 PD,Nieuw-Vennep,Netherlands,4.6264339,52.2599069,"https://www.google.com/maps?q=52.2599069,4.6264339",North Holland
11921572557,Vronen,164,2151 PH,Nieuw-Vennep,Netherlands,4.6230012,52.2596663,"https://www.google.com/maps?q=52.2596663,4.6230012",North Holland
11921572558,Oddinkhem,1,2151 SP,Nieuw-Vennep,Netherlands,4.6215041,52.2597629,"https://www.google.com/maps?q=52.2597629,4.6215041",North Holland
11921572559,Wemmingen,13,2151 RC,Nieuw-Vennep,Netherlands,4.6211796,52.2584689,"https://www.google.com/maps?q=52.2584689,4.6211796",North Holland
11921572560,Vronen,68,2151 PD,Nieuw-Vennep,Netherlands,4.6258989,52.2595264,"https://www.google.com/maps?q=52.2595264,4.6258989",North Holland
11921572561,Kreilerhof,25,2151 PJ,Nieuw-Vennep,Netherlands,4.6259857,52.2605331,"https://www.google.com/maps?q=52.2605331,4.6259857",North Holland
11921572562,Landei,10,2151 SR,Nieuw-Vennep,Netherlands,4.623376,52.2590893,"https://www.google.com/maps?q=52.2590893,4.623376",North Holland
11921572563,Vronen,186,2151 PH,Nieuw-Vennep,Netherlands,4.6240218,52.2598311,"https://www.google.com/maps?q=52.2598311,4.6240218",North Holland
11921572564,Oddinkhem,19,2151 RD,Nieuw-Vennep,Netherlands,4.6214002,52.2588725,"https://www.google.com/maps?q=52.2588725,4.6214002",North Holland
11921572565,Vagerveld,64,2151 ZD,Nieuw-Vennep,Netherlands,4.6237812,52.2603665,"https://www.google.com/maps?q=52.2603665,4.6237812",North Holland
11921572566,Oddinkhem,17,2151 RD,Nieuw-Vennep,Netherlands,4.6213519,52.2587531,"https://www.google.com/maps?q=52.2587531,4.6213519",North Holland
11921572567,Kreilerhof,26,2151 PJ,Nieuw-Vennep,Netherlands,4.6269537,52.260818,"https://www.google.com/maps?q=52.260818,4.6269537",North Holland
11921572568,Vronen,138,2151 PG,Nieuw-Vennep,Netherlands,4.6236412,52.2591428,"https://www.google.com/maps?q=52.2591428,4.6236412",North Holland
11921581069,Oddinkhem,27,2151 RD,Nieuw-Vennep,Netherlands,4.6217071,52.25931,"https://www.google.com/maps?q=52.25931,4.6217071",North Holland
11921581070,Vronen,54,2151 PD,Nieuw-Vennep,Netherlands,4.6262259,52.2597698,"https://www.google.com/maps?q=52.2597698,4.6262259",North Holland
11921581071,Kreilerhof,28,2151 PJ,Nieuw-Vennep,Netherlands,4.6270257,52.260797,"https://www.google.com/maps?q=52.260797,4.6270257",North Holland
11921581072,Oddinkhem,21,2151 RD,Nieuw-Vennep,Netherlands,4.6215006,52.2589355,"https://www.google.com/maps?q=52.2589355,4.6215006",North Holland
11921581073,Kreilerhof,43,2151 PK,Nieuw-Vennep,Netherlands,4.6264987,52.2602653,"https://www.google.com/maps?q=52.2602653,4.6264987",North Holland
11921581074,Kalslagerring,,2151 ZK,Nieuw-Vennep,Netherlands,4.6236253,52.2598603,"https://www.google.com/maps?q=52.2598603,4.6236253",North Holland
11921581075,Oddinkhem,6,2151 SP,Nieuw-Vennep,Netherlands,4.6219182,52.2598893,"https://www.google.com/maps?q=52.2598893,4.6219182",North Holland
11921581076,Vronen,22,2151 PC,Nieuw-Vennep,Netherlands,4.6252534,52.2601168,"https://www.google.com/maps?q=52.2601168,4.6252534",North Holland
11921581077,Kreilerhof,15,2151 PJ,Nieuw-Vennep,Netherlands,4.6254628,52.2605183,"https://www.google.com/maps?q=52.2605183,4.6254628",North Holland
11921581078,Vronen,76,2151 PD,Nieuw-Vennep,Netherlands,4.6257055,52.2593818,"https://www.google.com/maps?q=52.2593818,4.6257055",North Holland
11921581079,Vronen,168,2151 PH,Nieuw-Vennep,Netherlands,4.6231026,52.259732,"https://www.google.com/maps?q=52.259732,4.6231026",North Holland
11921581080,Kreilerhof,38,2151 PJ,Nieuw-Vennep,Netherlands,4.6273464,52.260472,"https://www.google.com/maps?q=52.260472,4.6273464",North Holland
11921581081,Vronen,92,2151 PE,Nieuw-Vennep,Netherlands,4.6252991,52.2591131,"https://www.google.com/maps?q=52.2591131,4.6252991",North Holland
11921581082,Vronen,134,2151 PG,Nieuw-Vennep,Netherlands,4.6237483,52.259088,"https://www.google.com/maps?q=52.259088,4.6237483",North Holland
11921581083,Oddinkhem,5,2151 RC,Nieuw-Vennep,Netherlands,4.6208771,52.2590122,"https://www.google.com/maps?q=52.2590122,4.6208771",North Holland
11921581084,Kreilerhof,8,2151 PJ,Nieuw-Vennep,Netherlands,4.6267463,52.2606665,"https://www.google.com/maps?q=52.2606665,4.6267463",North Holland
11921581085,Kreilerhof,37,2151 PJ,Nieuw-Vennep,Netherlands,4.6263282,52.2603577,"https://www.google.com/maps?q=52.2603577,4.6263282",North Holland
11921581086,Oddinkhem,24,2151 RD,Nieuw-Vennep,Netherlands,4.6215944,52.2591296,"https://www.google.com/maps?q=52.2591296,4.6215944",North Holland
11921581087,Vronen,162,2151 PH,Nieuw-Vennep,Netherlands,4.6229532,52.2596327,"https://www.google.com/maps?q=52.2596327,4.6229532",North Holland
11921581088,Kreilerhof,2,2151 PJ,Nieuw-Vennep,Netherlands,4.6265684,52.2607629,"https://www.google.com/maps?q=52.2607629,4.6265684",North Holland
11921581089,Vronen,32,2151 PC,Nieuw-Vennep,Netherlands,4.625562,52.2599815,"https://www.google.com/maps?q=52.2599815,4.625562",North Holland
11921581090,Vronen,154,2151 PG,Nieuw-Vennep,Netherlands,4.6231712,52.2593718,"https://www.google.com/maps?q=52.2593718,4.6231712",North Holland
11921581091,Oddinkhem,6,2151 RC,Nieuw-Vennep,Netherlands,4.6208408,52.2589651,"https://www.google.com/maps?q=52.2589651,4.6208408",North Holland
11921581092,Vagerveld,68,2151 ZD,Nieuw-Vennep,Netherlands,4.6235812,52.2602352,"https://www.google.com/maps?q=52.2602352,4.6235812",North Holland
11921581093,Oddinkhem,22,2151 RD,Nieuw-Vennep,Netherlands,4.621563,52.2590154,"https://www.google.com/maps?q=52.2590154,4.621563",North Holland
11921581094,Kreilerhof,44,2151 PJ,Nieuw-Vennep,Netherlands,4.6271848,52.2603697,"https://www.google.com/maps?q=52.2603697,4.6271848",North Holland
11921581095,Vronen,7,2151 PA,Nieuw-Vennep,Netherlands,4.624554,52.260025,"https://www.google.com/maps?q=52.260025,4.624554",North Holland
11921581096,Oddinkhem,20,2151 RD,Nieuw-Vennep,Netherlands,4.6214802,52.2589144,"https://www.google.com/maps?q=52.2589144,4.6214802",North Holland
11921581097,Vronen,11,2151 PA,Nieuw-Vennep,Netherlands,4.6247059,52.2599941,"https://www.google.com/maps?q=52.2599941,4.6247059",North Holland
11921581098,Kreilerhof,36,2151 PJ,Nieuw-Vennep,Netherlands,4.6273823,52.260511,"https://www.google.com/maps?q=52.260511,4.6273823",North Holland
11921581099,Kreilerhof,23,2151 PJ,Nieuw-Vennep,Netherlands,4.6259391,52.2605565,"https://www.google.com/maps?q=52.2605565,4.6259391",North Holland
11921581100,Kreilerhof,40,2151 PJ,Nieuw-Vennep,Netherlands,4.6272913,52.260437,"https://www.google.com/maps?q=52.260437,4.6272913",North Holland
11921581101,Vronen,88,2151 PE,Nieuw-Vennep,Netherlands,4.6253887,52.2591818,"https://www.google.com/maps?q=52.2591818,4.6253887",North Holland
11921581102,Vronen,12,2151 PC,Nieuw-Vennep,Netherlands,4.6249881,52.2602903,"https://www.google.com/maps?q=52.2602903,4.6249881",North Holland
11921581103,Vronen,44,2151 PD,Nieuw-Vennep,Netherlands,4.6264862,52.2599345,"https://www.google.com/maps?q=52.2599345,4.6264862",North Holland
11921581104,Wemmingen,14,2151 RC,Nieuw-Vennep,Netherlands,4.6212097,52.2585256,"https://www.google.com/maps?q=52.2585256,4.6212097",North Holland
11921581105,Kreilerhof,47,2151 PK,Nieuw-Vennep,Netherlands,4.6266351,52.2601828,"https://www.google.com/maps?q=52.2601828,4.6266351",North Holland
11921581106,Oddinkhem,7,2151 RC,Nieuw-Vennep,Netherlands,4.6207951,52.2589087,"https://www.google.com/maps?q=52.2589087,4.6207951",North Holland
11921581107,Oddinkhem,2,2151 RC,Nieuw-Vennep,Netherlands,4.6210153,52.2591831,"https://www.google.com/maps?q=52.2591831,4.6210153",North Holland
11921581108,Vronen,53,2151 PB,Nieuw-Vennep,Netherlands,4.6246071,52.2592177,"https://www.google.com/maps?q=52.2592177,4.6246071",North Holland
11921581109,Vronen,176,2151 PH,Nieuw-Vennep,Netherlands,4.6237131,52.2596826,"https://www.google.com/maps?q=52.2596826,4.6237131",North Holland
11921581110,Vronen,172,2151 PH,Nieuw-Vennep,Netherlands,4.6236663,52.2595844,"https://www.google.com/maps?q=52.2595844,4.6236663",North Holland
11921581111,Kreilerhof,20,2151 PJ,Nieuw-Vennep,Netherlands,4.6267894,52.2609202,"https://www.google.com/maps?q=52.2609202,4.6267894",North Holland
11921581112,Kreilerhof,34,2151 PJ,Nieuw-Vennep,Netherlands,4.6272089,52.2606963,"https://www.google.com/maps?q=52.2606963,4.6272089",North Holland
11921581113,Oddinkhem,4,2151 SP,Nieuw-Vennep,Netherlands,4.6216251,52.2599744,"https://www.google.com/maps?q=52.2599744,4.6216251",North Holland
11921581114,Vronen,100,2151 PE,Nieuw-Vennep,Netherlands,4.6251203,52.2589662,"https://www.google.com/maps?q=52.2589662,4.6251203",North Holland
11921581115,Vronen,11,2151 PA,Nieuw-Vennep,Netherlands,4.6246669,52.2599647,"https://www.google.com/maps?q=52.2599647,4.6246669",North Holland
11921581116,Vronen,66,2151 PD,Nieuw-Vennep,Netherlands,4.6259533,52.2595564,"https://www.google.com/maps?q=52.2595564,4.6259533",North Holland
11921581117,Oddinkhem,28,2151 RD,Nieuw-Vennep,Netherlands,4.6216075,52.2593358,"https://www.google.com/maps?q=52.2593358,4.6216075",North Holland
11921581118,Vronen,110,2151 PG,Nieuw-Vennep,Netherlands,4.6245745,52.2586525,"https://www.google.com/maps?q=52.2586525,4.6245745",North Holland
11921581119,Oddinkhem,10,2151 RC,Nieuw-Vennep,Netherlands,4.6207102,52.2587496,"https://www.google.com/maps?q=52.2587496,4.6207102",North Holland
11921581120,Kreilerhof,14,2151 PJ,Nieuw-Vennep,Netherlands,4.6269061,52.2605716,"https://www.google.com/maps?q=52.2605716,4.6269061",North Holland
11921581121,Kreilerhof,36,2151 PJ,Nieuw-Vennep,Netherlands,4.627575,52.2607394,"https://www.google.com/maps?q=52.2607394,4.627575",North Holland
11921581122,Kreilerhof,45,2151 PK,Nieuw-Vennep,Netherlands,4.6265893,52.2602094,"https://www.google.com/maps?q=52.2602094,4.6265893",North Holland
11921581123,Vronen,40,2151 PC,Nieuw-Vennep,Netherlands,4.6257737,52.2598546,"https://www.google.com/maps?q=52.2598546,4.6257737",North Holland
11921581124,Kreilerhof,12,2151 PJ,Nieuw-Vennep,Netherlands,4.626847,52.2606037,"https://www.google.com/maps?q=52.2606037,4.626847",North Holland
11921581125,Vronen,96,2151 PE,Nieuw-Vennep,Netherlands,4.6251981,52.2590278,"https://www.google.com/maps?q=52.2590278,4.6251981",North Holland
11921581126,Kreilerhof,10,2151 PJ,Nieuw-Vennep,Netherlands,4.626786,52.2606367,"https://www.google.com/maps?q=52.2606367,4.626786",North Holland
11921581127,Vronen,180,2151 PH,Nieuw-Vennep,Netherlands,4.623811,52.259748,"https://www.google.com/maps?q=52.259748,4.623811",North Holland
11921581128,Vronen,56,2151 PD,Nieuw-Vennep,Netherlands,4.6261799,52.2597386,"https://www.google.com/maps?q=52.2597386,4.6261799",North Holland
11921581129,Vronen,28,2151 PC,Nieuw-Vennep,Netherlands,4.6254492,52.2600438,"https://www.google.com/maps?q=52.2600438,4.6254492",North Holland
11921581130,Vronen,130,2151 PG,Nieuw-Vennep,Netherlands,4.6239849,52.258944,"https://www.google.com/maps?q=52.258944,4.6239849",North Holland
11921581131,Kreilerhof,4,2151 PJ,Nieuw-Vennep,Netherlands,4.6266211,52.2607302,"https://www.google.com/maps?q=52.2607302,4.6266211",North Holland
11921581132,Oddinkhem,11,2151 RC,Nieuw-Vennep,Netherlands,4.6206772,52.2587012,"https://www.google.com/maps?q=52.2587012,4.6206772",North Holland
11921581133,Vronen,62,2151 PD,Nieuw-Vennep,Netherlands,4.6260313,52.2596327,"https://www.google.com/maps?q=52.2596327,4.6260313",North Holland
11921581134,Oddinkhem,19,2151 RD,Nieuw-Vennep,Netherlands,4.621432,52.2588558,"https://www.google.com/maps?q=52.2588558,4.621432",North Holland
11921581135,Oddinkhem,9,2151 RC,Nieuw-Vennep,Netherlands,4.6207548,52.2588043,"https://www.google.com/maps?q=52.2588043,4.6207548",North Holland
11921581136,Vagerveld,53,2151 ZD,Nieuw-Vennep,Netherlands,4.6243291,52.2607389,"https://www.google.com/maps?q=52.2607389,4.6243291",North Holland
11921581137,Vronen,180,2151 PH,Nieuw-Vennep,Netherlands,4.6238631,52.2597275,"https://www.google.com/maps?q=52.2597275,4.6238631",North Holland
11921581138,Kreilerhof,46,2151 PJ,Nieuw-Vennep,Netherlands,4.6271351,52.260332,"https://www.google.com/maps?q=52.260332,4.6271351",North Holland
11921581139,Oddinkhem,20,2151 RD,Nieuw-Vennep,Netherlands,4.6214203,52.2589257,"https://www.google.com/maps?q=52.2589257,4.6214203",North Holland
11921581140,Oddinkhem,23,2151 RD,Nieuw-Vennep,Netherlands,4.6215482,52.2590622,"https://www.google.com/maps?q=52.2590622,4.6215482",North Holland
11921581141,Oddinkhem,8,2151 SP,Nieuw-Vennep,Netherlands,4.622079,52.2597042,"https://www.google.com/maps?q=52.2597042,4.622079",North Holland
11921581142,Vronen,116,2151 PG,Nieuw-Vennep,Netherlands,4.6243947,52.2587419,"https://www.google.com/maps?q=52.2587419,4.6243947",North Holland
11921581143,Vronen,150,2151 PG,Nieuw-Vennep,Netherlands,4.6232879,52.2593158,"https://www.google.com/maps?q=52.2593158,4.6232879",North Holland
11921581144,Vronen,192,2151 PH,Nieuw-Vennep,Netherlands,4.6241383,52.2599017,"https://www.google.com/maps?q=52.2599017,4.6241383",North Holland
11921581145,Oddinkhem,18,2151 RD,Nieuw-Vennep,Netherlands,4.6213603,52.2588136,"https://www.google.com/maps?q=52.2588136,4.6213603",North Holland
11921581146,Kreilerhof,6,2151 PJ,Nieuw-Vennep,Netherlands,4.626671,52.2607008,"https://www.google.com/maps?q=52.2607008,4.626671",North Holland
11921581147,Vagerveld,60,2151 ZD,Nieuw-Vennep,Netherlands,4.6239958,52.2605044,"https://www.google.com/maps?q=52.2605044,4.6239958",North Holland
11921581148,Vronen,170,2151 PH,Nieuw-Vennep,Netherlands,4.6236186,52.2595524,"https://www.google.com/maps?q=52.2595524,4.6236186",North Holland
11921581149,Kreilerhof,22,2151 PJ,Nieuw-Vennep,Netherlands,4.626884,52.260914,"https://www.google.com/maps?q=52.260914,4.626884",North Holland
11921581150,Vronen,3,2151 PA,Nieuw-Vennep,Netherlands,4.6244463,52.2600821,"https://www.google.com/maps?q=52.2600821,4.6244463",North Holland
11921581151,Oddinkhem,31,2151 RD,Nieuw-Vennep,Netherlands,4.6213423,52.259417,"https://www.google.com/maps?q=52.259417,4.6213423",North Holland
11921581152,Vronen,176,2151 PH,Nieuw-Vennep,Netherlands,4.623765,52.2596565,"https://www.google.com/maps?q=52.2596565,4.623765",North Holland
11921581153,Vronen,112,2151 PG,Nieuw-Vennep,Netherlands,4.6245134,52.258679,"https://www.google.com/maps?q=52.258679,4.6245134",North Holland
11921581154,Kreilerhof,11,2151 PJ,Nieuw-Vennep,Netherlands,4.6253505,52.2605773,"https://www.google.com/maps?q=52.2605773,4.6253505",North Holland
11921581155,Kreilerhof,30,2151 PJ,Nieuw-Vennep,Netherlands,4.6270714,52.2607574,"https://www.google.com/maps?q=52.2607574,4.6270714",North Holland
11921581156,Vronen,36,2151 PC,Nieuw-Vennep,Netherlands,4.6256763,52.2599195,"https://www.google.com/maps?q=52.2599195,4.6256763",North Holland
11921581157,Vronen,184,2151 PH,Nieuw-Vennep,Netherlands,4.6239587,52.2597967,"https://www.google.com/maps?q=52.2597967,4.6239587",North Holland
11921581158,Kreilerhof,18,2151 PJ,Nieuw-Vennep,Netherlands,4.6270277,52.2605077,"https://www.google.com/maps?q=52.2605077,4.6270277",North Holland
11921581159,Vagerveld,58,2151 ZD,Nieuw-Vennep,Netherlands,4.6240941,52.2605647,"https://www.google.com/maps?q=52.2605647,4.6240941",North Holland
11921581160,Kreilerhof,42,2151 PJ,Nieuw-Vennep,Netherlands,4.62723,52.2603999,"https://www.google.com/maps?q=52.2603999,4.62723",North Holland
11921581161,Kreilerhof,11,2151 PJ,Nieuw-Vennep,Netherlands,4.6253854,52.2606161,"https://www.google.com/maps?q=52.2606161,4.6253854",North Holland
11921581162,Oddinkhem,18,2151 RD,Nieuw-Vennep,Netherlands,4.6213987,52.2588084,"https://www.google.com/maps?q=52.2588084,4.6213987",North Holland
11921581163,Kreilerhof,16,2151 PJ,Nieuw-Vennep,Netherlands,4.6269593,52.2605395,"https://www.google.com/maps?q=52.2605395,4.6269593",North Holland
11921581164,Kreilerhof,9,2151 PJ,Nieuw-Vennep,Netherlands,4.6252869,52.2606043,"https://www.google.com/maps?q=52.2606043,4.6252869",North Holland
11924851706,Zwattingburen,34,2151 ZL,Nieuw-Vennep,Netherlands,4.6238728,52.2614778,"https://www.google.com/maps?q=52.2614778,4.6238728",North Holland
11924851707,Zwattingburen,58,2151 ZL,Nieuw-Vennep,Netherlands,4.6230561,52.2617192,"https://www.google.com/maps?q=52.2617192,4.6230561",North Holland
11924851708,Zwattingburen,46,2151 ZL,Nieuw-Vennep,Netherlands,4.6234672,52.2616037,"https://www.google.com/maps?q=52.2616037,4.6234672",North Holland
11924851709,Vagerveld,44,2151 ZC,Nieuw-Vennep,Netherlands,4.6231581,52.260659,"https://www.google.com/maps?q=52.260659,4.6231581",North Holland
11924851711,Zwattingburen,97,2151 ZJ,Nieuw-Vennep,Netherlands,4.6247283,52.2621053,"https://www.google.com/maps?q=52.2621053,4.6247283",North Holland
11924851712,Zwattingburen,68,2151 ZL,Nieuw-Vennep,Netherlands,4.6227048,52.2618156,"https://www.google.com/maps?q=52.2618156,4.6227048",North Holland
11924851713,Zwattingburen,8,2151 ZK,Nieuw-Vennep,Netherlands,4.6246026,52.2610102,"https://www.google.com/maps?q=52.2610102,4.6246026",North Holland
11924851714,Vagerveld,17,2151 ZB,Nieuw-Vennep,Netherlands,4.6224203,52.2613593,"https://www.google.com/maps?q=52.2613593,4.6224203",North Holland
11924851715,Vagerveld,4,2151 ZA,Nieuw-Vennep,Netherlands,4.6219733,52.2605266,"https://www.google.com/maps?q=52.2605266,4.6219733",North Holland
11924851716,Zwattingburen,62,2151 ZL,Nieuw-Vennep,Netherlands,4.622922,52.2617664,"https://www.google.com/maps?q=52.2617664,4.622922",North Holland
11924851717,Vagerveld,19,2151 ZB,Nieuw-Vennep,Netherlands,4.6225499,52.2613152,"https://www.google.com/maps?q=52.2613152,4.6225499",North Holland
11924851718,Zwattingburen,20,2151 ZK,Nieuw-Vennep,Netherlands,4.6242429,52.2611868,"https://www.google.com/maps?q=52.2611868,4.6242429",North Holland
11924851719,Zwattingburen,66,2151 ZL,Nieuw-Vennep,Netherlands,4.6227897,52.2618041,"https://www.google.com/maps?q=52.2618041,4.6227897",North Holland
11924851720,Zwattingburen,95,2151 ZJ,Nieuw-Vennep,Netherlands,4.6247572,52.2621238,"https://www.google.com/maps?q=52.2621238,4.6247572",North Holland
11924851721,Vagerveld,28,2151 ZB,Nieuw-Vennep,Netherlands,4.6231724,52.261156,"https://www.google.com/maps?q=52.261156,4.6231724",North Holland
11924851722,Zwattingburen,8,2151 ZK,Nieuw-Vennep,Netherlands,4.6246241,52.2610291,"https://www.google.com/maps?q=52.2610291,4.6246241",North Holland
11924851723,Vagerveld,23,2151 ZB,Nieuw-Vennep,Netherlands,4.6228304,52.2612446,"https://www.google.com/maps?q=52.2612446,4.6228304",North Holland
11924851724,Vagerveld,81,2151 ZE,Nieuw-Vennep,Netherlands,4.622347,52.260374,"https://www.google.com/maps?q=52.260374,4.622347",North Holland
11924851725,Vagerveld,34,2151 ZC,Nieuw-Vennep,Netherlands,4.6229057,52.2608754,"https://www.google.com/maps?q=52.2608754,4.6229057",North Holland
11924851726,Vagerveld,13,2151 ZA,Nieuw-Vennep,Netherlands,4.6223179,52.2609332,"https://www.google.com/maps?q=52.2609332,4.6223179",North Holland
11924851727,Zwattingburen,9,2151 ZG,Nieuw-Vennep,Netherlands,4.6252135,52.2614051,"https://www.google.com/maps?q=52.2614051,4.6252135",North Holland
11924851728,Vagerveld,77,2151 ZE,Nieuw-Vennep,Netherlands,4.6226108,52.2602893,"https://www.google.com/maps?q=52.2602893,4.6226108",North Holland
11924851729,Vagerveld,26,2151 ZB,Nieuw-Vennep,Netherlands,4.6230367,52.2611963,"https://www.google.com/maps?q=52.2611963,4.6230367",North Holland
11924851730,Zwattingburen,16,2151 ZK,Nieuw-Vennep,Netherlands,4.6243935,52.2611529,"https://www.google.com/maps?q=52.2611529,4.6243935",North Holland
11924851732,Zwattingburen,56,2151 ZL,Nieuw-Vennep,Netherlands,4.6231359,52.2617087,"https://www.google.com/maps?q=52.2617087,4.6231359",North Holland
11924851733,Vagerveld,22,2151 ZB,Nieuw-Vennep,Netherlands,4.6227315,52.2611632,"https://www.google.com/maps?q=52.2611632,4.6227315",North Holland
11924851734,Zwattingburen,101,2151 ZJ,Nieuw-Vennep,Netherlands,4.6246306,52.2620385,"https://www.google.com/maps?q=52.2620385,4.6246306",North Holland
11924851735,Vagerveld,5,2151 ZA,Nieuw-Vennep,Netherlands,4.6220414,52.2606083,"https://www.google.com/maps?q=52.2606083,4.6220414",North Holland
11924851736,Vagerveld,27,2151 ZB,Nieuw-Vennep,Netherlands,4.6231062,52.2611748,"https://www.google.com/maps?q=52.2611748,4.6231062",North Holland
11924851737,Zwattingburen,93,2151 ZJ,Nieuw-Vennep,Netherlands,4.6248313,52.2621716,"https://www.google.com/maps?q=52.2621716,4.6248313",North Holland
11924851738,Zwattingburen,44,2151 ZL,Nieuw-Vennep,Netherlands,4.6235254,52.2615746,"https://www.google.com/maps?q=52.2615746,4.6235254",North Holland
11924851739,Vagerveld,21,2151 ZB,Nieuw-Vennep,Netherlands,4.62269,52.2612776,"https://www.google.com/maps?q=52.2612776,4.62269",North Holland
11924851740,Zwattingburen,16,2151 ZK,Nieuw-Vennep,Netherlands,4.6243605,52.2611255,"https://www.google.com/maps?q=52.2611255,4.6243605",North Holland
11924851741,Zwattingburen,14,2151 ZK,Nieuw-Vennep,Netherlands,4.6244192,52.2610956,"https://www.google.com/maps?q=52.2610956,4.6244192",North Holland
11924851742,Zwattingburen,21,2151 ZG,Nieuw-Vennep,Netherlands,4.6255379,52.2616025,"https://www.google.com/maps?q=52.2616025,4.6255379",North Holland
11924851743,Vagerveld,82,2151 ZE,Nieuw-Vennep,Netherlands,4.6222829,52.2603937,"https://www.google.com/maps?q=52.2603937,4.6222829",North Holland
11924851744,Vagerveld,29,2151 ZB,Nieuw-Vennep,Netherlands,4.623241,52.2611341,"https://www.google.com/maps?q=52.2611341,4.623241",North Holland
11924851745,Vagerveld,1,2151 ZA,Nieuw-Vennep,Netherlands,4.6219081,52.2604456,"https://www.google.com/maps?q=52.2604456,4.6219081",North Holland
11924851746,Vagerveld,50,2151 ZC,Nieuw-Vennep,Netherlands,4.6236999,52.2608429,"https://www.google.com/maps?q=52.2608429,4.6236999",North Holland
11924851747,Zwattingburen,42,2151 ZL,Nieuw-Vennep,Netherlands,4.6236031,52.2615591,"https://www.google.com/maps?q=52.2615591,4.6236031",North Holland
11924851748,Vagerveld,74,2151 ZE,Nieuw-Vennep,Netherlands,4.6228287,52.2602436,"https://www.google.com/maps?q=52.2602436,4.6228287",North Holland
11924851749,Vagerveld,72,2151 ZE,Nieuw-Vennep,Netherlands,4.6229649,52.2602064,"https://www.google.com/maps?q=52.2602064,4.6229649",North Holland
11924851750,Zwattingburen,99,2151 ZJ,Nieuw-Vennep,Netherlands,4.624667,52.2620621,"https://www.google.com/maps?q=52.2620621,4.624667",North Holland
11924851751,Vagerveld,22,2151 ZB,Nieuw-Vennep,Netherlands,4.6227526,52.2612594,"https://www.google.com/maps?q=52.2612594,4.6227526",North Holland
11924851752,Vagerveld,15,2151 ZA,Nieuw-Vennep,Netherlands,4.6223787,52.2610156,"https://www.google.com/maps?q=52.2610156,4.6223787",North Holland
11926057135,Kinlozen,36,2151 XC,Nieuw-Vennep,Netherlands,4.6238267,52.2626935,"https://www.google.com/maps?q=52.2626935,4.6238267",North Holland
11926057136,Nierop,23,2151 XH,Nieuw-Vennep,Netherlands,4.6206038,52.2627076,"https://www.google.com/maps?q=52.2627076,4.6206038",North Holland
11926057137,Kinlozen,39,2151 XB,Nieuw-Vennep,Netherlands,4.6220707,52.2620366,"https://www.google.com/maps?q=52.2620366,4.6220707",North Holland
11926057138,Kinlozen,34,2151 XC,Nieuw-Vennep,Netherlands,4.6237702,52.2626647,"https://www.google.com/maps?q=52.2626647,4.6237702",North Holland
11926057139,Zwattingburen,47,2151 ZH,Nieuw-Vennep,Netherlands,4.6243406,52.2617013,"https://www.google.com/maps?q=52.2617013,4.6243406",North Holland
11926057140,Kalslagerring,9,2151 TA,Nieuw-Vennep,Netherlands,4.6204381,52.2614625,"https://www.google.com/maps?q=52.2614625,4.6204381",North Holland
11926057141,Kinlozen,20,2151 XC,Nieuw-Vennep,Netherlands,4.6234118,52.262427,"https://www.google.com/maps?q=52.262427,4.6234118",North Holland
11926057142,Kinlozen,6,2151 XC,Nieuw-Vennep,Netherlands,4.6230929,52.2621709,"https://www.google.com/maps?q=52.2621709,4.6230929",North Holland
11926057143,Kinlozen,54,2151 XD,Nieuw-Vennep,Netherlands,4.6233422,52.2630147,"https://www.google.com/maps?q=52.2630147,4.6233422",North Holland
11926057144,Kinlozen,66,2151 XD,Nieuw-Vennep,Netherlands,4.6229076,52.2630819,"https://www.google.com/maps?q=52.2630819,4.6229076",North Holland
11926057145,Kinlozen,2,2151 XC,Nieuw-Vennep,Netherlands,4.6230072,52.2621015,"https://www.google.com/maps?q=52.2621015,4.6230072",North Holland
11926057146,Nierop,12,2151 XJ,Nieuw-Vennep,Netherlands,4.6213116,52.2630817,"https://www.google.com/maps?q=52.2630817,4.6213116",North Holland
11926057147,Zwattingburen,49,2151 ZH,Nieuw-Vennep,Netherlands,4.6242914,52.2617283,"https://www.google.com/maps?q=52.2617283,4.6242914",North Holland
11926057148,Kinlozen,48,2151 XD,Nieuw-Vennep,Netherlands,4.623197,52.2629286,"https://www.google.com/maps?q=52.2629286,4.623197",North Holland
11926057149,Nierop,104,2151 XL,Nieuw-Vennep,Netherlands,4.6213176,52.2638279,"https://www.google.com/maps?q=52.2638279,4.6213176",North Holland
11926057150,Nierop,24,2151 XJ,Nieuw-Vennep,Netherlands,4.6216188,52.2632867,"https://www.google.com/maps?q=52.2632867,4.6216188",North Holland
11926057151,Kinlozen,144,2151 XG,Nieuw-Vennep,Netherlands,4.6225273,52.263444,"https://www.google.com/maps?q=52.263444,4.6225273",North Holland
11926057152,Kinlozen,138,2151 XG,Nieuw-Vennep,Netherlands,4.6224287,52.2633249,"https://www.google.com/maps?q=52.2633249,4.6224287",North Holland
11926057153,Nierop,122,2151 XL,Nieuw-Vennep,Netherlands,4.6208659,52.2634495,"https://www.google.com/maps?q=52.2634495,4.6208659",North Holland
11926057154,Kinlozen,136,2151 XG,Nieuw-Vennep,Netherlands,4.6223956,52.2632749,"https://www.google.com/maps?q=52.2632749,4.6223956",North Holland
11926057155,Nierop,114,2151 XL,Nieuw-Vennep,Netherlands,4.6209935,52.2636152,"https://www.google.com/maps?q=52.2636152,4.6209935",North Holland
11926057156,Nierop,108,2151 XL,Nieuw-Vennep,Netherlands,4.621279,52.2637428,"https://www.google.com/maps?q=52.2637428,4.621279",North Holland
11926057157,Nierop,25,2151 XH,Nieuw-Vennep,Netherlands,4.6206678,52.2626976,"https://www.google.com/maps?q=52.2626976,4.6206678",North Holland
11926057158,Nierop,112,2151 XL,Nieuw-Vennep,Netherlands,4.6211805,52.2636543,"https://www.google.com/maps?q=52.2636543,4.6211805",North Holland
11926057159,Kinlozen,19,2151 XA,Nieuw-Vennep,Netherlands,4.621425,52.2623603,"https://www.google.com/maps?q=52.2623603,4.621425",North Holland
11926057160,Kinlozen,43,2151 XB,Nieuw-Vennep,Netherlands,4.6222085,52.2619976,"https://www.google.com/maps?q=52.2619976,4.6222085",North Holland
11926057161,Kinlozen,108,2151 XE,Nieuw-Vennep,Netherlands,4.6219638,52.2626547,"https://www.google.com/maps?q=52.2626547,4.6219638",North Holland
11926057162,Kinlozen,118,2151 XE,Nieuw-Vennep,Netherlands,4.621686,52.2628054,"https://www.google.com/maps?q=52.2628054,4.621686",North Holland
11926057163,Zwattingburen,43,2151 ZH,Nieuw-Vennep,Netherlands,4.6244784,52.2616514,"https://www.google.com/maps?q=52.2616514,4.6244784",North Holland
11926057164,Kinlozen,35,2151 XB,Nieuw-Vennep,Netherlands,4.6219171,52.2620669,"https://www.google.com/maps?q=52.2620669,4.6219171",North Holland
11926057165,Kinlozen,49,2151 XB,Nieuw-Vennep,Netherlands,4.6224009,52.261928,"https://www.google.com/maps?q=52.261928,4.6224009",North Holland
11926057166,Kalslagerring,11,2151 TA,Nieuw-Vennep,Netherlands,4.62044,52.2615001,"https://www.google.com/maps?q=52.2615001,4.62044",North Holland
11926057167,Zwattingburen,69,2151 ZH,Nieuw-Vennep,Netherlands,4.6237466,52.2620439,"https://www.google.com/maps?q=52.2620439,4.6237466",North Holland
11926057168,Kinlozen,10,2151 XC,Nieuw-Vennep,Netherlands,4.6231878,52.2622445,"https://www.google.com/maps?q=52.2622445,4.6231878",North Holland
11926114769,Kinlozen,86,2151 XE,Nieuw-Vennep,Netherlands,4.6226041,52.2623338,"https://www.google.com/maps?q=52.2623338,4.6226041",North Holland
11926114770,Kinlozen,1,2151 XA,Nieuw-Vennep,Netherlands,4.6207895,52.2625009,"https://www.google.com/maps?q=52.2625009,4.6207895",North Holland
11926114771,Kalslagerring,11,2151 TA,Nieuw-Vennep,Netherlands,4.6205094,52.2616878,"https://www.google.com/maps?q=52.2616878,4.6205094",North Holland
11926114772,Kinlozen,47,2151 XB,Nieuw-Vennep,Netherlands,4.622328,52.2619432,"https://www.google.com/maps?q=52.2619432,4.622328",North Holland
11926114773,Kinlozen,104,2151 XE,Nieuw-Vennep,Netherlands,4.6220943,52.2626078,"https://www.google.com/maps?q=52.2626078,4.6220943",North Holland
11926114774,Kinlozen,64,2151 XD,Nieuw-Vennep,Netherlands,4.6229258,52.2631012,"https://www.google.com/maps?q=52.2631012,4.6229258",North Holland
11926114775,Nierop,40,2151 XJ,Nieuw-Vennep,Netherlands,4.6219974,52.2635678,"https://www.google.com/maps?q=52.2635678,4.6219974",North Holland
11926114776,Nierop,118,2151 XL,Nieuw-Vennep,Netherlands,4.6209298,52.2635322,"https://www.google.com/maps?q=52.2635322,4.6209298",North Holland
11926114777,Kinlozen,30,2151 XC,Nieuw-Vennep,Netherlands,4.6236767,52.2625978,"https://www.google.com/maps?q=52.2625978,4.6236767",North Holland
11926114778,Zwattingburen,71,2151 ZH,Nieuw-Vennep,Netherlands,4.6236929,52.2620753,"https://www.google.com/maps?q=52.2620753,4.6236929",North Holland
11926114779,Kinlozen,90,2151 XE,Nieuw-Vennep,Netherlands,4.6224906,52.2623938,"https://www.google.com/maps?q=52.2623938,4.6224906",North Holland
11926114780,Zwattingburen,55,2151 ZH,Nieuw-Vennep,Netherlands,4.624125,52.2618197,"https://www.google.com/maps?q=52.2618197,4.624125",North Holland
11926114781,Nierop,74,2151 XK,Nieuw-Vennep,Netherlands,4.6205539,52.2636516,"https://www.google.com/maps?q=52.2636516,4.6205539",North Holland
11926114782,Zwattingburen,67,2151 ZH,Nieuw-Vennep,Netherlands,4.6237967,52.262016,"https://www.google.com/maps?q=52.262016,4.6237967",North Holland
11926114783,Kinlozen,18,2151 XC,Nieuw-Vennep,Netherlands,4.6233605,52.2623914,"https://www.google.com/maps?q=52.2623914,4.6233605",North Holland
11926114784,Nierop,90,2151 XL,Nieuw-Vennep,Netherlands,4.620999,52.2639821,"https://www.google.com/maps?q=52.2639821,4.620999",North Holland
11926114785,Kalslagerring,15,2151 TA,Nieuw-Vennep,Netherlands,4.6206103,52.261708,"https://www.google.com/maps?q=52.261708,4.6206103",North Holland
11926114786,Nierop,72,2151 XK,Nieuw-Vennep,Netherlands,4.6205184,52.2635749,"https://www.google.com/maps?q=52.2635749,4.6205184",North Holland
11926114787,Nierop,22,2151 XJ,Nieuw-Vennep,Netherlands,4.6215806,52.2632498,"https://www.google.com/maps?q=52.2632498,4.6215806",North Holland
11926114788,Nierop,110,2151 XL,Nieuw-Vennep,Netherlands,4.6212449,52.2636968,"https://www.google.com/maps?q=52.2636968,4.6212449",North Holland
11926114789,Nierop,64,2151 XK,Nieuw-Vennep,Netherlands,4.6200299,52.2633226,"https://www.google.com/maps?q=52.2633226,4.6200299",North Holland
11926114790,Kinlozen,34,2151 XC,Nieuw-Vennep,Netherlands,4.6237326,52.2626818,"https://www.google.com/maps?q=52.2626818,4.6237326",North Holland
11926114791,Kinlozen,45,2151 XB,Nieuw-Vennep,Netherlands,4.6222583,52.2619621,"https://www.google.com/maps?q=52.2619621,4.6222583",North Holland
11926114792,Kinlozen,23,2151 XA,Nieuw-Vennep,Netherlands,4.6215681,52.2623363,"https://www.google.com/maps?q=52.2623363,4.6215681",North Holland
11926114793,Nierop,38,2151 XJ,Nieuw-Vennep,Netherlands,4.621949,52.2635341,"https://www.google.com/maps?q=52.2635341,4.621949",North Holland
11926114794,Kinlozen,60,2151 XD,Nieuw-Vennep,Netherlands,4.6230287,52.2631729,"https://www.google.com/maps?q=52.2631729,4.6230287",North Holland
11926114795,Nierop,21,2151 XH,Nieuw-Vennep,Netherlands,4.6205421,52.2627404,"https://www.google.com/maps?q=52.2627404,4.6205421",North Holland
11926114796,Nierop,102,2151 XL,Nieuw-Vennep,Netherlands,4.6213731,52.2638831,"https://www.google.com/maps?q=52.2638831,4.6213731",North Holland
11926114797,Nierop,19,2151 XH,Nieuw-Vennep,Netherlands,4.6204627,52.2627412,"https://www.google.com/maps?q=52.2627412,4.6204627",North Holland
11926114798,Kinlozen,106,2151 XE,Nieuw-Vennep,Netherlands,4.6220204,52.2626241,"https://www.google.com/maps?q=52.2626241,4.6220204",North Holland
11926114799,Zwattingburen,75,2151 ZJ,Nieuw-Vennep,Netherlands,4.6240924,52.2622903,"https://www.google.com/maps?q=52.2622903,4.6240924",North Holland
11926114800,Nierop,34,2151 XJ,Nieuw-Vennep,Netherlands,4.6218537,52.2634637,"https://www.google.com/maps?q=52.2634637,4.6218537",North Holland
11926114801,Kinlozen,55,2151 XB,Nieuw-Vennep,Netherlands,4.6225937,52.2618527,"https://www.google.com/maps?q=52.2618527,4.6225937",North Holland
11926114802,Nierop,11,2151 XH,Nieuw-Vennep,Netherlands,4.6201789,52.2628115,"https://www.google.com/maps?q=52.2628115,4.6201789",North Holland
11926114803,Kinlozen,15,2151 XA,Nieuw-Vennep,Netherlands,4.6212919,52.2624016,"https://www.google.com/maps?q=52.2624016,4.6212919",North Holland
11926114804,Kinlozen,5,2151 XA,Nieuw-Vennep,Netherlands,4.6209309,52.2624739,"https://www.google.com/maps?q=52.2624739,4.6209309",North Holland
11926114805,Kinlozen,122,2151 XG,Nieuw-Vennep,Netherlands,4.6221472,52.2629955,"https://www.google.com/maps?q=52.2629955,4.6221472",North Holland
11926114806,Kinlozen,62,2151 XD,Nieuw-Vennep,Netherlands,4.6229925,52.2631474,"https://www.google.com/maps?q=52.2631474,4.6229925",North Holland
11926114807,Kinlozen,29,2151 XB,Nieuw-Vennep,Netherlands,4.6217347,52.262123,"https://www.google.com/maps?q=52.262123,4.6217347",North Holland
11926114808,Nierop,28,2151 XJ,Nieuw-Vennep,Netherlands,4.6217149,52.2633542,"https://www.google.com/maps?q=52.2633542,4.6217149",North Holland
11926114809,Kinlozen,84,2151 XD,Nieuw-Vennep,Netherlands,4.6228396,52.2627015,"https://www.google.com/maps?q=52.2627015,4.6228396",North Holland
11926114810,Nierop,17,2151 XH,Nieuw-Vennep,Netherlands,4.6203903,52.2627527,"https://www.google.com/maps?q=52.2627527,4.6203903",North Holland
11926114811,Kinlozen,38,2151 XC,Nieuw-Vennep,Netherlands,4.6238861,52.2627227,"https://www.google.com/maps?q=52.2627227,4.6238861",North Holland
11926114812,Kalslagerring,15,2151 TA,Nieuw-Vennep,Netherlands,4.6206595,52.2616406,"https://www.google.com/maps?q=52.2616406,4.6206595",North Holland
11926114813,Kinlozen,33,2151 XB,Nieuw-Vennep,Netherlands,4.6218638,52.2620905,"https://www.google.com/maps?q=52.2620905,4.6218638",North Holland
11926114814,Kinlozen,124,2151 XG,Nieuw-Vennep,Netherlands,4.6221792,52.2630357,"https://www.google.com/maps?q=52.2630357,4.6221792",North Holland
11926114815,Zwattingburen,51,2151 ZH,Nieuw-Vennep,Netherlands,4.6242288,52.261763,"https://www.google.com/maps?q=52.261763,4.6242288",North Holland
11926114816,Nierop,6,2151 XJ,Nieuw-Vennep,Netherlands,4.6211592,52.2629779,"https://www.google.com/maps?q=52.2629779,4.6211592",North Holland
11926114817,Kinlozen,68,2151 XD,Nieuw-Vennep,Netherlands,4.6228415,52.2630372,"https://www.google.com/maps?q=52.2630372,4.6228415",North Holland
11926114818,Kinlozen,41,2151 XB,Nieuw-Vennep,Netherlands,4.6221367,52.2620172,"https://www.google.com/maps?q=52.2620172,4.6221367",North Holland
11926114819,Nierop,92,2151 XL,Nieuw-Vennep,Netherlands,4.6210274,52.2640185,"https://www.google.com/maps?q=52.2640185,4.6210274",North Holland
11929994786,Kalslagerring,264,2151 TE,Nieuw-Vennep,Netherlands,4.6188624,52.2620049,"https://www.google.com/maps?q=52.2620049,4.6188624",North Holland
11929994787,Kalslagerring,566,2151 TM,Nieuw-Vennep,Netherlands,4.619628,52.2635301,"https://www.google.com/maps?q=52.2635301,4.619628",North Holland
11929994788,Kalslagerring,636,2151 TN,Nieuw-Vennep,Netherlands,4.6199333,52.264057,"https://www.google.com/maps?q=52.264057,4.6199333",North Holland
11929994789,Kalslagerring,664,2151 TP,Nieuw-Vennep,Netherlands,4.6199633,52.2639388,"https://www.google.com/maps?q=52.2639388,4.6199633",North Holland
11929994790,Kalslagerring,632,2151 TN,Nieuw-Vennep,Netherlands,4.6198217,52.2638319,"https://www.google.com/maps?q=52.2638319,4.6198217",North Holland
11929994791,Kalslagerring,422,2151 TJ,Nieuw-Vennep,Netherlands,4.6189942,52.2631545,"https://www.google.com/maps?q=52.2631545,4.6189942",North Holland
11929994792,Kalslagerring,453,2151 TK,Nieuw-Vennep,Netherlands,4.6189017,52.2631539,"https://www.google.com/maps?q=52.2631539,4.6189017",North Holland
11929994793,Kalslagerring,237,2151 TD,Nieuw-Vennep,Netherlands,4.6191,52.2618881,"https://www.google.com/maps?q=52.2618881,4.6191",North Holland
11929994794,Kalslagerring,546,2151 TM,Nieuw-Vennep,Netherlands,4.6196441,52.2636023,"https://www.google.com/maps?q=52.2636023,4.6196441",North Holland
11929994795,Kalslagerring,454,2151 TK,Nieuw-Vennep,Netherlands,4.6188568,52.26306,"https://www.google.com/maps?q=52.26306,4.6188568",North Holland
11929994796,Kalslagerring,424,2151 TJ,Nieuw-Vennep,Netherlands,4.6189394,52.2630431,"https://www.google.com/maps?q=52.2630431,4.6189394",North Holland
11929994797,Kalslagerring,641,2151 TP,Nieuw-Vennep,Netherlands,4.6197882,52.263703,"https://www.google.com/maps?q=52.263703,4.6197882",North Holland
11929994798,Kalslagerring,225,2151 TD,Nieuw-Vennep,Netherlands,4.6190171,52.2619647,"https://www.google.com/maps?q=52.2619647,4.6190171",North Holland
11929994799,Kalslagerring,634,2151 TN,Nieuw-Vennep,Netherlands,4.619879,52.2639441,"https://www.google.com/maps?q=52.2639441,4.619879",North Holland
11947049465,Oetewaal,13,2151 SL,Nieuw-Vennep,Netherlands,4.6194197,52.2598363,"https://www.google.com/maps?q=52.2598363,4.6194197",North Holland
11947049466,Oetewaal,17,2151 SL,Nieuw-Vennep,Netherlands,4.6197542,52.2597057,"https://www.google.com/maps?q=52.2597057,4.6197542",North Holland
11947049467,Kalslagerring,42,2151 TS,Nieuw-Vennep,Netherlands,4.6209448,52.2601239,"https://www.google.com/maps?q=52.2601239,4.6209448",North Holland
11947049468,Kalslagerring,42,2151 TS,Nieuw-Vennep,Netherlands,4.6210372,52.2601801,"https://www.google.com/maps?q=52.2601801,4.6210372",North Holland
11947103769,Oddinkhem,4,2151 RA,Nieuw-Vennep,Netherlands,4.62015,52.2592361,"https://www.google.com/maps?q=52.2592361,4.62015",North Holland
11947103770,Oddinkhem,33,2151 RB,Nieuw-Vennep,Netherlands,4.6197886,52.2589752,"https://www.google.com/maps?q=52.2589752,4.6197886",North Holland
11947103771,Oetewaal,5,2151 RA,Nieuw-Vennep,Netherlands,4.619757,52.2593154,"https://www.google.com/maps?q=52.2593154,4.619757",North Holland
11947103772,Kalslagerring,52,2151 TS,Nieuw-Vennep,Netherlands,4.6204782,52.2604894,"https://www.google.com/maps?q=52.2604894,4.6204782",North Holland
11947103773,Oetewaal,26,2151 RB,Nieuw-Vennep,Netherlands,4.6192961,52.2590966,"https://www.google.com/maps?q=52.2590966,4.6192961",North Holland
11947103774,Oetewaal,14,2151 SL,Nieuw-Vennep,Netherlands,4.619527,52.2598059,"https://www.google.com/maps?q=52.2598059,4.619527",North Holland
11947103775,Oetewaal,12A,2151 SL,Nieuw-Vennep,Netherlands,4.6189788,52.2599045,"https://www.google.com/maps?q=52.2599045,4.6189788",North Holland
11947103776,Oetewaal,8,2151 SL,Nieuw-Vennep,Netherlands,4.6193216,52.2602077,"https://www.google.com/maps?q=52.2602077,4.6193216",North Holland
11947103777,Oetewaal,17,2151 RA,Nieuw-Vennep,Netherlands,4.6187808,52.2595244,"https://www.google.com/maps?q=52.2595244,4.6187808",North Holland
11947103778,Oetewaal,7,2151 RA,Nieuw-Vennep,Netherlands,4.6195997,52.2593659,"https://www.google.com/maps?q=52.2593659,4.6195997",North Holland
11947103779,Oetewaal,23,2151 RA,Nieuw-Vennep,Netherlands,4.6189995,52.2591482,"https://www.google.com/maps?q=52.2591482,4.6189995",North Holland
11947103780,Oddinkhem,33,2151 RB,Nieuw-Vennep,Netherlands,4.6198913,52.2589018,"https://www.google.com/maps?q=52.2589018,4.6198913",North Holland
11947103781,Oddinkhem,34,2151 RB,Nieuw-Vennep,Netherlands,4.6199333,52.2589636,"https://www.google.com/maps?q=52.2589636,4.6199333",North Holland
11947103782,Oetewaal,22,2151 SM,Nieuw-Vennep,Netherlands,4.6198519,52.2600711,"https://www.google.com/maps?q=52.2600711,4.6198519",North Holland
11947103783,Oetewaal,12,2151 RA,Nieuw-Vennep,Netherlands,4.6191734,52.2594231,"https://www.google.com/maps?q=52.2594231,4.6191734",North Holland
11947103784,Kalslagerring,46,2151 TS,Nieuw-Vennep,Netherlands,4.6208351,52.2603044,"https://www.google.com/maps?q=52.2603044,4.6208351",North Holland
11947103785,Oddinkhem,30,2151 RB,Nieuw-Vennep,Netherlands,4.6198127,52.2587252,"https://www.google.com/maps?q=52.2587252,4.6198127",North Holland
11947103786,Kalslagerring,58,2151 TS,Nieuw-Vennep,Netherlands,4.6200758,52.2607232,"https://www.google.com/maps?q=52.2607232,4.6200758",North Holland
11947103787,Oddinkhem,30,2151 RB,Nieuw-Vennep,Netherlands,4.619783,52.2587481,"https://www.google.com/maps?q=52.2587481,4.619783",North Holland
11947103788,Kalslagerring,54,2151 TS,Nieuw-Vennep,Netherlands,4.6203925,52.2604891,"https://www.google.com/maps?q=52.2604891,4.6203925",North Holland
11947103789,Oetewaal,21,2151 SM,Nieuw-Vennep,Netherlands,4.6197664,52.2600125,"https://www.google.com/maps?q=52.2600125,4.6197664",North Holland
11947103790,Oetewaal,5,2151 SL,Nieuw-Vennep,Netherlands,4.6194926,52.2603645,"https://www.google.com/maps?q=52.2603645,4.6194926",North Holland
11947103791,Oddinkhem,3,2151 RA,Nieuw-Vennep,Netherlands,4.6199742,52.2592728,"https://www.google.com/maps?q=52.2592728,4.6199742",North Holland
11947103792,Oetewaal,14,2151 RA,Nieuw-Vennep,Netherlands,4.618875,52.259686,"https://www.google.com/maps?q=52.259686,4.618875",North Holland
11947103793,Oetewaal,16,2151 RA,Nieuw-Vennep,Netherlands,4.6188986,52.2594777,"https://www.google.com/maps?q=52.2594777,4.6188986",North Holland
11947103794,Oetewaal,18,2151 RA,Nieuw-Vennep,Netherlands,4.6187342,52.2594758,"https://www.google.com/maps?q=52.2594758,4.6187342",North Holland
11947103795,Kalslagerring,58,2151 TS,Nieuw-Vennep,Netherlands,4.6201679,52.2606089,"https://www.google.com/maps?q=52.2606089,4.6201679",North Holland
11947103796,Oetewaal,8,2151 RA,Nieuw-Vennep,Netherlands,4.6194545,52.2593168,"https://www.google.com/maps?q=52.2593168,4.6194545",North Holland
11947103797,Oetewaal,17,2151 RA,Nieuw-Vennep,Netherlands,4.6188658,52.2594605,"https://www.google.com/maps?q=52.2594605,4.6188658",North Holland
11947103798,Oddinkhem,33,2151 RB,Nieuw-Vennep,Netherlands,4.6199343,52.25887,"https://www.google.com/maps?q=52.25887,4.6199343",North Holland
11947103799,Oddinkhem,32,2151 RB,Nieuw-Vennep,Netherlands,4.6199123,52.2588446,"https://www.google.com/maps?q=52.2588446,4.6199123",North Holland
11947103800,Kalslagerring,46,2151 TS,Nieuw-Vennep,Netherlands,4.6207737,52.2602628,"https://www.google.com/maps?q=52.2602628,4.6207737",North Holland
11947103801,Oetewaal,19,2151 SL,Nieuw-Vennep,Netherlands,4.6199161,52.2596579,"https://www.google.com/maps?q=52.2596579,4.6199161",North Holland
11947103802,Oetewaal,2,2151 SL,Nieuw-Vennep,Netherlands,4.6196087,52.2605046,"https://www.google.com/maps?q=52.2605046,4.6196087",North Holland
11947103803,Oetewaal,10,2151 RA,Nieuw-Vennep,Netherlands,4.6193548,52.2594615,"https://www.google.com/maps?q=52.2594615,4.6193548",North Holland
11947103804,Oetewaal,21,2151 RA,Nieuw-Vennep,Netherlands,4.6186524,52.2593065,"https://www.google.com/maps?q=52.2593065,4.6186524",North Holland
11947103805,Kalslagerring,54,2151 TS,Nieuw-Vennep,Netherlands,4.6203473,52.2605796,"https://www.google.com/maps?q=52.2605796,4.6203473",North Holland
11947103806,Oetewaal,14,2151 SL,Nieuw-Vennep,Netherlands,4.6195556,52.2598389,"https://www.google.com/maps?q=52.2598389,4.6195556",North Holland
11947103807,Oetewaal,12B,2151 SL,Nieuw-Vennep,Netherlands,4.6191295,52.2598654,"https://www.google.com/maps?q=52.2598654,4.6191295",North Holland
11947103808,Oetewaal,12,2151 RA,Nieuw-Vennep,Netherlands,4.6191791,52.2595188,"https://www.google.com/maps?q=52.2595188,4.6191791",North Holland
11947103809,Kalslagerring,58,2151 TS,Nieuw-Vennep,Netherlands,4.6201285,52.260632,"https://www.google.com/maps?q=52.260632,4.6201285",North Holland
11947103810,Oetewaal,15,2151 SL,Nieuw-Vennep,Netherlands,4.6196058,52.2597807,"https://www.google.com/maps?q=52.2597807,4.6196058",North Holland
11947103811,Oetewaal,21,2151 SM,Nieuw-Vennep,Netherlands,4.6198071,52.2600623,"https://www.google.com/maps?q=52.2600623,4.6198071",North Holland
11947103812,Kalslagerring,50,2151 TS,Nieuw-Vennep,Netherlands,4.6205706,52.2604419,"https://www.google.com/maps?q=52.2604419,4.6205706",North Holland
11947103813,Kalslagerring,48,2151 TS,Nieuw-Vennep,Netherlands,4.6207323,52.2603684,"https://www.google.com/maps?q=52.2603684,4.6207323",North Holland
11947103814,Oddinkhem,32,2151 RB,Nieuw-Vennep,Netherlands,4.6198603,52.258854,"https://www.google.com/maps?q=52.258854,4.6198603",North Holland
11947103815,Oetewaal,9,2151 SL,Nieuw-Vennep,Netherlands,4.6192869,52.260153,"https://www.google.com/maps?q=52.260153,4.6192869",North Holland
11947103816,Oetewaal,12,2151 SL,Nieuw-Vennep,Netherlands,4.6191589,52.2600091,"https://www.google.com/maps?q=52.2600091,4.6191589",North Holland
11947103817,Kalslagerring,54,2151 TS,Nieuw-Vennep,Netherlands,4.6203419,52.2605138,"https://www.google.com/maps?q=52.2605138,4.6203419",North Holland
11947103818,Oetewaal,10,2151 SL,Nieuw-Vennep,Netherlands,4.6192226,52.2601181,"https://www.google.com/maps?q=52.2601181,4.6192226",North Holland
12033860600,Kalslagerring,64,2151 TS,Nieuw-Vennep,Netherlands,4.6193691,52.2611589,"https://www.google.com/maps?q=52.2611589,4.6193691",North Holland
12033860601,Kalslagerring,70,2151 TS,Nieuw-Vennep,Netherlands,4.618804,52.2614152,"https://www.google.com/maps?q=52.2614152,4.618804",North Holland
12033860602,Kalslagerring,68,2151 TS,Nieuw-Vennep,Netherlands,4.6190901,52.2613554,"https://www.google.com/maps?q=52.2613554,4.6190901",North Holland
12033860603,Smedenweg,56,2151 DD,Nieuw-Vennep,Netherlands,4.6181544,52.2614838,"https://www.google.com/maps?q=52.2614838,4.6181544",North Holland
12033860604,Smedenweg,56,2151 DD,Nieuw-Vennep,Netherlands,4.6180597,52.2614612,"https://www.google.com/maps?q=52.2614612,4.6180597",North Holland
12033860605,Kalslagerring,62,2151 TS,Nieuw-Vennep,Netherlands,4.6195474,52.2610649,"https://www.google.com/maps?q=52.2610649,4.6195474",North Holland
12033860606,Kalslagerring,70,2151 TS,Nieuw-Vennep,Netherlands,4.6188919,52.2614465,"https://www.google.com/maps?q=52.2614465,4.6188919",North Holland
12033860607,Kalslagerring,64,2151 TS,Nieuw-Vennep,Netherlands,4.6193029,52.2611283,"https://www.google.com/maps?q=52.2611283,4.6193029",North Holland
12033860608,Kalslagerring,68,2151 TS,Nieuw-Vennep,Netherlands,4.6189661,52.2613288,"https://www.google.com/maps?q=52.2613288,4.6189661",North Holland
12059855292,Seoellaan,20,2152 KK,Nieuw-Vennep,Netherlands,4.6423321,52.2734438,"https://www.google.com/maps?q=52.2734438,4.6423321",North Holland
12059855293,Seoellaan,32,2152 KK,Nieuw-Vennep,Netherlands,4.6427763,52.2732805,"https://www.google.com/maps?q=52.2732805,4.6427763",North Holland
12059855294,Seoellaan,24,2152 KK,Nieuw-Vennep,Netherlands,4.6421228,52.2732755,"https://www.google.com/maps?q=52.2732755,4.6421228",North Holland
12059855295,Seoellaan,22,2152 KK,Nieuw-Vennep,Netherlands,4.6422427,52.2733296,"https://www.google.com/maps?q=52.2733296,4.6422427",North Holland
12059855296,Seoellaan,32,2152 KK,Nieuw-Vennep,Netherlands,4.6427297,52.2733029,"https://www.google.com/maps?q=52.2733029,4.6427297",North Holland
12059855297,Seoellaan,24,2152 KK,Nieuw-Vennep,Netherlands,4.6420986,52.2732504,"https://www.google.com/maps?q=52.2732504,4.6420986",North Holland
12059855298,Seoellaan,22,2152 KK,Nieuw-Vennep,Netherlands,4.6421976,52.2733575,"https://www.google.com/maps?q=52.2733575,4.6421976",North Holland
12059855299,Seoellaan,30,2152 KK,Nieuw-Vennep,Netherlands,4.6426477,52.2732376,"https://www.google.com/maps?q=52.2732376,4.6426477",North Holland
12059855300,Seoellaan,18,2152 KK,Nieuw-Vennep,Netherlands,4.642405,52.273493,"https://www.google.com/maps?q=52.273493,4.642405",North Holland
12262920132,Steve Bikostraat,83,2131 RZ,Hoofddorp,Netherlands,4.6815234,52.3083032,"https://www.google.com/maps?q=52.3083032,4.6815234",North Holland
12262920133,Liniepad,,2131 PZ,Hoofddorp,Netherlands,4.6815722,52.3079769,"https://www.google.com/maps?q=52.3079769,4.6815722",North Holland
12262920134,Steve Bikostraat,83,2131 RZ,Hoofddorp,Netherlands,4.6816707,52.3081406,"https://www.google.com/maps?q=52.3081406,4.6816707",North Holland
12262920135,Steve Bikostraat,83,2131 RZ,Hoofddorp,Netherlands,4.681902,52.3082166,"https://www.google.com/maps?q=52.3082166,4.681902",North Holland
12262920136,Steve Bikostraat,83,2131 RZ,Hoofddorp,Netherlands,4.6818367,52.3080588,"https://www.google.com/maps?q=52.3080588,4.6818367",North Holland
12262920137,Liniepad,,2131 PZ,Hoofddorp,Netherlands,4.6816834,52.307934,"https://www.google.com/maps?q=52.307934,4.6816834",North Holland
12480100326,Rijksweg,501,1991 AS,Velserbroek,Netherlands,4.6472157,52.4302572,"https://www.google.com/maps?q=52.4302572,4.6472157",North Holland
237804824,Seinpostweg,,1976 BT,IJmuiden,Netherlands,4.5761133,52.4642468,"https://www.google.com/maps?q=52.4642468,4.5761133",North Holland
237804966,Seinpostweg,,1976 BT,IJmuiden,Netherlands,4.5774409,52.4643429,"https://www.google.com/maps?q=52.4643429,4.5774409",North Holland
308383576,Provincialeweg,,1561 XE,Krommenie,Netherlands,4.7666826,52.4939348,"https://www.google.com/maps?q=52.4939348,4.7666826",North Holland
466653881,Zonnekruidweg,80,1171 VM,Badhoevedorp,Netherlands,4.7496281,52.3267541,"https://www.google.com/maps?q=52.3267541,4.7496281",North Holland
466653882,Zonnekruidweg,80,1171 VM,Badhoevedorp,Netherlands,4.7496287,52.3268085,"https://www.google.com/maps?q=52.3268085,4.7496287",North Holland
466653883,Zonnekruidweg,80,1171 VM,Badhoevedorp,Netherlands,4.7500833,52.3268085,"https://www.google.com/maps?q=52.3268085,4.7500833",North Holland
466653884,Zonnekruidweg,80,1171 VM,Badhoevedorp,Netherlands,4.7500833,52.326859,"https://www.google.com/maps?q=52.326859,4.7500833",North Holland
466653885,Zonnekruidweg,80,1171 VM,Badhoevedorp,Netherlands,4.7496287,52.3268604,"https://www.google.com/maps?q=52.3268604,4.7496287",North Holland
466653886,Zonnekruidweg,80,1171 VM,Badhoevedorp,Netherlands,4.7496287,52.3269179,"https://www.google.com/maps?q=52.3269179,4.7496287",North Holland
466653887,Zonnekruidweg,80,1171 VM,Badhoevedorp,Netherlands,4.7500833,52.3269179,"https://www.google.com/maps?q=52.3269179,4.7500833",North Holland
466653888,Zonnekruidweg,80,1171 VM,Badhoevedorp,Netherlands,4.7499707,52.3269741,"https://www.google.com/maps?q=52.3269741,4.7499707",North Holland
466653889,Zonnekruidweg,80,1171 VM,Badhoevedorp,Netherlands,4.7504208,52.3269741,"https://www.google.com/maps?q=52.3269741,4.7504208",North Holland
466653890,,,1171 VM,Badhoevedorp,Netherlands,4.7508686,52.3269741,"https://www.google.com/maps?q=52.3269741,4.7508686",North Holland
466653891,Zonnekruidweg,80,1171 VM,Badhoevedorp,Netherlands,4.7498548,52.327033,"https://www.google.com/maps?q=52.327033,4.7498548",North Holland
466653892,Zonnekruidweg,80,1171 VM,Badhoevedorp,Netherlands,4.7503049,52.327033,"https://www.google.com/maps?q=52.327033,4.7503049",North Holland
466653893,Zonnekruidweg,80,1171 VM,Badhoevedorp,Netherlands,4.7507527,52.327033,"https://www.google.com/maps?q=52.327033,4.7507527",North Holland
466653894,Zonnekruidweg,80,1171 VM,Badhoevedorp,Netherlands,4.749763,52.3270849,"https://www.google.com/maps?q=52.3270849,4.749763",North Holland
466653895,Zonnekruidweg,80,1171 VM,Badhoevedorp,Netherlands,4.750213,52.3270849,"https://www.google.com/maps?q=52.3270849,4.750213",North Holland
466653896,Zonnekruidweg,80,1171 VM,Badhoevedorp,Netherlands,4.7506609,52.3270849,"https://www.google.com/maps?q=52.3270849,4.7506609",North Holland
466653897,Zonnekruidweg,80,1171 VM,Badhoevedorp,Netherlands,4.7496711,52.3271425,"https://www.google.com/maps?q=52.3271425,4.7496711",North Holland
466653898,Zonnekruidweg,80,1171 VM,Badhoevedorp,Netherlands,4.7501212,52.3271425,"https://www.google.com/maps?q=52.3271425,4.7501212",North Holland
466653899,Zonnekruidweg,80,1171 VM,Badhoevedorp,Netherlands,4.7505689,52.3271425,"https://www.google.com/maps?q=52.3271425,4.7505689",North Holland
466653900,Zonnekruidweg,80,1171 VM,Badhoevedorp,Netherlands,4.7504622,52.3272001,"https://www.google.com/maps?q=52.3272001,4.7504622",North Holland
466653901,Zonnekruidweg,80,1171 VM,Badhoevedorp,Netherlands,4.7500075,52.3272001,"https://www.google.com/maps?q=52.3272001,4.7500075",North Holland
466653902,Zonnekruidweg,80,1171 VM,Badhoevedorp,Netherlands,4.7503565,52.3272575,"https://www.google.com/maps?q=52.3272575,4.7503565",North Holland
466653903,Zonnekruidweg,80,1171 VM,Badhoevedorp,Netherlands,4.7499019,52.3272575,"https://www.google.com/maps?q=52.3272575,4.7499019",North Holland
466653904,Zonnekruidweg,80,1171 VM,Badhoevedorp,Netherlands,4.7502647,52.3273095,"https://www.google.com/maps?q=52.3273095,4.7502647",North Holland
466653905,Zonnekruidweg,80,1171 VM,Badhoevedorp,Netherlands,4.7498101,52.3273095,"https://www.google.com/maps?q=52.3273095,4.7498101",North Holland
466653906,Zonnekruidweg,80,1171 VM,Badhoevedorp,Netherlands,4.7501636,52.3273684,"https://www.google.com/maps?q=52.3273684,4.7501636",North Holland
466653907,Zonnekruidweg,80,1171 VM,Badhoevedorp,Netherlands,4.749709,52.3273684,"https://www.google.com/maps?q=52.3273684,4.749709",North Holland
466653908,Zonnekruidweg,80,1171 VM,Badhoevedorp,Netherlands,4.7500557,52.3274246,"https://www.google.com/maps?q=52.3274246,4.7500557",North Holland
466653909,Zonnekruidweg,80,1171 VM,Badhoevedorp,Netherlands,4.749957,52.327478,"https://www.google.com/maps?q=52.327478,4.749957",North Holland
466653910,Zonnekruidweg,80,1171 VM,Badhoevedorp,Netherlands,4.7498537,52.3275326,"https://www.google.com/maps?q=52.3275326,4.7498537",North Holland
466653911,Zonnekruidweg,80,1171 VM,Badhoevedorp,Netherlands,4.7497435,52.3275916,"https://www.google.com/maps?q=52.3275916,4.7497435",North Holland
632286812,Prins Bernhardlaan,,1111 ES,Diemen,Netherlands,4.9684739,52.3390474,"https://www.google.com/maps?q=52.3390474,4.9684739",North Holland
632286813,Weesperstraat,100B,1112 AP,Diemen,Netherlands,4.9697964,52.3339156,"https://www.google.com/maps?q=52.3339156,4.9697964",North Holland
632286816,Weesperstraat,100B,1112 AP,Diemen,Netherlands,4.9697974,52.3337384,"https://www.google.com/maps?q=52.3337384,4.9697974",North Holland
632286818,Onoribo,3,1112 WS,Diemen,Netherlands,4.9750262,52.3340209,"https://www.google.com/maps?q=52.3340209,4.9750262",North Holland
632286822,Slagbaai,5,1112 WV,Diemen,Netherlands,4.9757609,52.333695,"https://www.google.com/maps?q=52.333695,4.9757609",North Holland
632286826,Het Tolhek,12,1111 RS,Diemen,Netherlands,4.9761824,52.3355331,"https://www.google.com/maps?q=52.3355331,4.9761824",North Holland
632286830,Marinburg,420,1112 WM,Diemen,Netherlands,4.9755651,52.3341928,"https://www.google.com/maps?q=52.3341928,4.9755651",North Holland
632286834,Marinburg,418,1112 WM,Diemen,Netherlands,4.9753084,52.3342864,"https://www.google.com/maps?q=52.3342864,4.9753084",North Holland
632286838,Marinburg,414,1112 WM,Diemen,Netherlands,4.9751551,52.3343304,"https://www.google.com/maps?q=52.3343304,4.9751551",North Holland
632286842,Marinburg,408,1112 WM,Diemen,Netherlands,4.9749318,52.3343885,"https://www.google.com/maps?q=52.3343885,4.9749318",North Holland
632286846,Marinburg,400,1112 WM,Diemen,Netherlands,4.9746252,52.3344862,"https://www.google.com/maps?q=52.3344862,4.9746252",North Holland
632286849,Bantaskine,6,1112 WL,Diemen,Netherlands,4.9736795,52.3343081,"https://www.google.com/maps?q=52.3343081,4.9736795",North Holland
632286853,Bantaskine,10,1112 WL,Diemen,Netherlands,4.9735416,52.3341628,"https://www.google.com/maps?q=52.3341628,4.9735416",North Holland
632286855,Ma Retraite,22,1112 WR,Diemen,Netherlands,4.9740896,52.3337124,"https://www.google.com/maps?q=52.3337124,4.9740896",North Holland
632286856,Ma Retraite,24,1112 WR,Diemen,Netherlands,4.9741013,52.3336568,"https://www.google.com/maps?q=52.3336568,4.9741013",North Holland
632286857,Ma Retraite,22,1112 WR,Diemen,Netherlands,4.9741485,52.3336932,"https://www.google.com/maps?q=52.3336932,4.9741485",North Holland
632286858,Ma Retraite,32,1112 WR,Diemen,Netherlands,4.9738093,52.3333319,"https://www.google.com/maps?q=52.3333319,4.9738093",North Holland
632286859,Lelindaal,408,1112 WH,Diemen,Netherlands,4.9735998,52.3331621,"https://www.google.com/maps?q=52.3331621,4.9735998",North Holland
632286862,Lelindaal,410,1112 WH,Diemen,Netherlands,4.9736522,52.333126,"https://www.google.com/maps?q=52.333126,4.9736522",North Holland
632286871,Visseringweg,23G,1112 AS,Diemen,Netherlands,4.9705363,52.3328165,"https://www.google.com/maps?q=52.3328165,4.9705363",North Holland
632286873,Visseringweg,23G,1112 AS,Diemen,Netherlands,4.9705915,52.3328406,"https://www.google.com/maps?q=52.3328406,4.9705915",North Holland
632286874,Visseringweg,23G,1112 AS,Diemen,Netherlands,4.9706066,52.3328628,"https://www.google.com/maps?q=52.3328628,4.9706066",North Holland
632286875,Visseringweg,23G,1112 AS,Diemen,Netherlands,4.9705267,52.332905,"https://www.google.com/maps?q=52.332905,4.9705267",North Holland
632286876,Visseringweg,23F,1112 AS,Diemen,Netherlands,4.9701966,52.332933,"https://www.google.com/maps?q=52.332933,4.9701966",North Holland
632286877,Visseringweg,21,1112 AS,Diemen,Netherlands,4.970199,52.3329584,"https://www.google.com/maps?q=52.3329584,4.970199",North Holland
632286878,Visseringweg,21,1112 AS,Diemen,Netherlands,4.9701599,52.3329936,"https://www.google.com/maps?q=52.3329936,4.9701599",North Holland
677095387,Schervenweg,38,1771 RT,Wieringerwerf,Netherlands,5.0934249,52.8229792,"https://www.google.com/maps?q=52.8229792,5.0934249",North Holland
677095395,Hoornseweg,4,1775 RB,Middenmeer,Netherlands,5.020786,52.8249561,"https://www.google.com/maps?q=52.8249561,5.020786",North Holland
677095414,Zuiderdijkweg,14,1771 SH,Wieringerwerf,Netherlands,5.1053107,52.8028106,"https://www.google.com/maps?q=52.8028106,5.1053107",North Holland
681984560,Langereis,54,1733 ME,Hoogwoud,Netherlands,4.9124816,52.7227577,"https://www.google.com/maps?q=52.7227577,4.9124816",North Holland
682001141,Zwinweg,,1761 JJ,Anna Paulowna,Netherlands,4.8734937,52.8579629,"https://www.google.com/maps?q=52.8579629,4.8734937",North Holland
682054155,Moerbeek,10a,1735 ER,'t Veld,Netherlands,4.8399352,52.7600872,"https://www.google.com/maps?q=52.7600872,4.8399352",North Holland
684637501,Spanbroekerweg,120a,1715 GT,Spanbroek,Netherlands,4.9578546,52.6976313,"https://www.google.com/maps?q=52.6976313,4.9578546",North Holland
692253272,Dijkgraaf,5,2064 SG,Spaarndam,Netherlands,4.6791512,52.4103152,"https://www.google.com/maps?q=52.4103152,4.6791512",North Holland
692253278,Rijnland,,2064 SE,Spaarndam,Netherlands,4.6791097,52.4090243,"https://www.google.com/maps?q=52.4090243,4.6791097",North Holland
692253279,Rijnland,,2064 SE,Spaarndam,Netherlands,4.6791613,52.4091117,"https://www.google.com/maps?q=52.4091117,4.6791613",North Holland
692253280,Rijnland,,2064 SE,Spaarndam,Netherlands,4.6792265,52.4090476,"https://www.google.com/maps?q=52.4090476,4.6792265",North Holland
692253281,Heemraad,2,2064 SJ,Spaarndam,Netherlands,4.6783454,52.4095584,"https://www.google.com/maps?q=52.4095584,4.6783454",North Holland
692253282,Gemaal,5,2064 SM,Spaarndam,Netherlands,4.6767139,52.4087117,"https://www.google.com/maps?q=52.4087117,4.6767139",North Holland
692490207,Smeet,1,1551 NG,Westzaan,Netherlands,4.7698607,52.4337577,"https://www.google.com/maps?q=52.4337577,4.7698607",North Holland
692490208,Smeet,1,1551 NG,Westzaan,Netherlands,4.7695687,52.4332139,"https://www.google.com/maps?q=52.4332139,4.7695687",North Holland
692490209,Smeet,1,1551 NG,Westzaan,Netherlands,4.7697525,52.4331575,"https://www.google.com/maps?q=52.4331575,4.7697525",North Holland
692490210,Smeet,1,1551 NG,Westzaan,Netherlands,4.7697069,52.4336146,"https://www.google.com/maps?q=52.4336146,4.7697069",North Holland
692490211,Smeet,1,1551 NG,Westzaan,Netherlands,4.7698159,52.4339277,"https://www.google.com/maps?q=52.4339277,4.7698159",North Holland
692490212,Smeet,1,1551 NG,Westzaan,Netherlands,4.7701571,52.4343312,"https://www.google.com/maps?q=52.4343312,4.7701571",North Holland
692490213,Smeet,1,1551 NG,Westzaan,Netherlands,4.7699662,52.4343602,"https://www.google.com/maps?q=52.4343602,4.7699662",North Holland
692490215,Smeet,1,1551 NG,Westzaan,Netherlands,4.7699561,52.4337487,"https://www.google.com/maps?q=52.4337487,4.7699561",North Holland
692490216,Smeet,1,1551 NG,Westzaan,Netherlands,4.7710065,52.4333273,"https://www.google.com/maps?q=52.4333273,4.7710065",North Holland
692490217,Smeet,1,1551 NG,Westzaan,Netherlands,4.7701694,52.4334365,"https://www.google.com/maps?q=52.4334365,4.7701694",North Holland
692490218,Smeet,1,1551 NG,Westzaan,Netherlands,4.7706204,52.4334729,"https://www.google.com/maps?q=52.4334729,4.7706204",North Holland
692490219,Smeet,1,1551 NG,Westzaan,Netherlands,4.7706708,52.4336278,"https://www.google.com/maps?q=52.4336278,4.7706708",North Holland
692490220,Smeet,1,1551 NG,Westzaan,Netherlands,4.7714258,52.4335502,"https://www.google.com/maps?q=52.4335502,4.7714258",North Holland
692490221,Smeet,1,1551 NG,Westzaan,Netherlands,4.7712092,52.4329724,"https://www.google.com/maps?q=52.4329724,4.7712092",North Holland
692490222,Smeet,1,1551 NG,Westzaan,Netherlands,4.7713969,52.4329442,"https://www.google.com/maps?q=52.4329442,4.7713969",North Holland
692490223,Smeet,1,1551 NG,Westzaan,Netherlands,4.7715469,52.4333822,"https://www.google.com/maps?q=52.4333822,4.7715469",North Holland
692490224,Smeet,1,1551 NG,Westzaan,Netherlands,4.7716528,52.4336854,"https://www.google.com/maps?q=52.4336854,4.7716528",North Holland
692490225,Smeet,1,1551 NG,Westzaan,Netherlands,4.7718033,52.4341227,"https://www.google.com/maps?q=52.4341227,4.7718033",North Holland
692490226,Smeet,1,1551 NG,Westzaan,Netherlands,4.7716085,52.4341453,"https://www.google.com/maps?q=52.4341453,4.7716085",North Holland
692490227,Smeet,1,1551 NG,Westzaan,Netherlands,4.7714985,52.4335511,"https://www.google.com/maps?q=52.4335511,4.7714985",North Holland
692490228,Smeet,1,1551 NG,Westzaan,Netherlands,4.7719311,52.4338807,"https://www.google.com/maps?q=52.4338807,4.7719311",North Holland
692490229,Smeet,1,1551 NG,Westzaan,Netherlands,4.7719615,52.4338154,"https://www.google.com/maps?q=52.4338154,4.7719615",North Holland
692490230,Smeet,1,1551 NG,Westzaan,Netherlands,4.7696482,52.4341175,"https://www.google.com/maps?q=52.4341175,4.7696482",North Holland
692490231,Smeet,1,1551 NG,Westzaan,Netherlands,4.7696866,52.4341706,"https://www.google.com/maps?q=52.4341706,4.7696866",North Holland
692490232,Smeet,1,1551 NG,Westzaan,Netherlands,4.7724671,52.4337878,"https://www.google.com/maps?q=52.4337878,4.7724671",North Holland
692490239,Smeet,1,1551 NG,Westzaan,Netherlands,4.7731282,52.4332143,"https://www.google.com/maps?q=52.4332143,4.7731282",North Holland
692490243,Smeet,1,1551 NG,Westzaan,Netherlands,4.7734757,52.4330444,"https://www.google.com/maps?q=52.4330444,4.7734757",North Holland
692490244,Smeet,1,1551 NG,Westzaan,Netherlands,4.7717048,52.4330645,"https://www.google.com/maps?q=52.4330645,4.7717048",North Holland
692490245,Smeet,1,1551 NG,Westzaan,Netherlands,4.7716725,52.4331353,"https://www.google.com/maps?q=52.4331353,4.7716725",North Holland
692490246,Smeet,1,1551 NG,Westzaan,Netherlands,4.7693558,52.4333683,"https://www.google.com/maps?q=52.4333683,4.7693558",North Holland
692490247,Smeet,1,1551 NG,Westzaan,Netherlands,4.7694258,52.4334246,"https://www.google.com/maps?q=52.4334246,4.7694258",North Holland
692490251,Smeet,1,1551 NG,Westzaan,Netherlands,4.7711603,52.4337022,"https://www.google.com/maps?q=52.4337022,4.7711603",North Holland
692490252,Smeet,1,1551 NG,Westzaan,Netherlands,4.7710859,52.4334858,"https://www.google.com/maps?q=52.4334858,4.7710859",North Holland
692490253,Smeet,1,1551 NG,Westzaan,Netherlands,4.7701991,52.4336,"https://www.google.com/maps?q=52.4336,4.7701991",North Holland
692490254,Smeet,1,1551 NG,Westzaan,Netherlands,4.770272,52.4338154,"https://www.google.com/maps?q=52.4338154,4.770272",North Holland
724516000,West,5C,1633 JA,Avenhorn,Netherlands,4.949768,52.6158187,"https://www.google.com/maps?q=52.6158187,4.949768",North Holland
733446429,Neuvel,15A,1693 BN,Wervershoof,Netherlands,5.1457031,52.7261199,"https://www.google.com/maps?q=52.7261199,5.1457031",North Holland
733446430,Neuvel,11,1693 BN,Wervershoof,Netherlands,5.146298,52.7261819,"https://www.google.com/maps?q=52.7261819,5.146298",North Holland
733446431,Neuvel,15A,1693 BN,Wervershoof,Netherlands,5.1456749,52.7261815,"https://www.google.com/maps?q=52.7261815,5.1456749",North Holland
733446432,Neuvel,11,1693 BN,Wervershoof,Netherlands,5.1464108,52.7262437,"https://www.google.com/maps?q=52.7262437,5.1464108",North Holland
733446433,Neuvel,15A,1693 BN,Wervershoof,Netherlands,5.1456552,52.7262431,"https://www.google.com/maps?q=52.7262431,5.1456552",North Holland
733446434,Neuvel,9,1693 BN,Wervershoof,Netherlands,5.1465232,52.7263043,"https://www.google.com/maps?q=52.7263043,5.1465232",North Holland
733446435,Neuvel,15A,1693 BN,Wervershoof,Netherlands,5.1456287,52.7263037,"https://www.google.com/maps?q=52.7263037,5.1456287",North Holland
733446436,Neuvel,9,1693 BN,Wervershoof,Netherlands,5.1464958,52.7263675,"https://www.google.com/maps?q=52.7263675,5.1464958",North Holland
733446437,Neuvel,15A,1693 BN,Wervershoof,Netherlands,5.1456014,52.7263668,"https://www.google.com/maps?q=52.7263668,5.1456014",North Holland
733446438,Neuvel,9,1693 BN,Wervershoof,Netherlands,5.1466082,52.7264276,"https://www.google.com/maps?q=52.7264276,5.1466082",North Holland
733446439,Neuvel,15A,1693 BN,Wervershoof,Netherlands,5.1455783,52.7264268,"https://www.google.com/maps?q=52.7264268,5.1455783",North Holland
733446440,Beerewerf,9,1693 BV,Wervershoof,Netherlands,5.146719,52.7264893,"https://www.google.com/maps?q=52.7264893,5.146719",North Holland
733446441,Neuvel,15A,1693 BN,Wervershoof,Netherlands,5.1455544,52.7264884,"https://www.google.com/maps?q=52.7264884,5.1455544",North Holland
733446442,Neuvel,9,1693 BN,Wervershoof,Netherlands,5.1466933,52.7265509,"https://www.google.com/maps?q=52.7265509,5.1466933",North Holland
733446443,Neuvel,15A,1693 BN,Wervershoof,Netherlands,5.1455288,52.72655,"https://www.google.com/maps?q=52.72655,5.1455288",North Holland
733446444,Neuvel,9,1693 BN,Wervershoof,Netherlands,5.1466702,52.7266115,"https://www.google.com/maps?q=52.7266115,5.1466702",North Holland
733446445,Neuvel,15A,1693 BN,Wervershoof,Netherlands,5.1455057,52.7266106,"https://www.google.com/maps?q=52.7266106,5.1455057",North Holland
733446446,Neuvel,9,1693 BN,Wervershoof,Netherlands,5.1466446,52.726672,"https://www.google.com/maps?q=52.726672,5.1466446",North Holland
733446447,Neuvel,15A,1693 BN,Wervershoof,Netherlands,5.14548,52.7266711,"https://www.google.com/maps?q=52.7266711,5.14548",North Holland
733446448,Neuvel,9,1693 BN,Wervershoof,Netherlands,5.146619,52.7267342,"https://www.google.com/maps?q=52.7267342,5.146619",North Holland
733446449,Neuvel,15A,1693 BN,Wervershoof,Netherlands,5.1454544,52.7267332,"https://www.google.com/maps?q=52.7267332,5.1454544",North Holland
733446450,Neuvel,9,1693 BN,Wervershoof,Netherlands,5.1465959,52.7267967,"https://www.google.com/maps?q=52.7267967,5.1465959",North Holland
733446451,Neuvel,15A,1693 BN,Wervershoof,Netherlands,5.1454313,52.7267959,"https://www.google.com/maps?q=52.7267959,5.1454313",North Holland
733446452,Neuvel,9,1693 BN,Wervershoof,Netherlands,5.1465739,52.7268579,"https://www.google.com/maps?q=52.7268579,5.1465739",North Holland
733446453,Neuvel,15A,1693 BN,Wervershoof,Netherlands,5.1454093,52.7268569,"https://www.google.com/maps?q=52.7268569,5.1454093",North Holland
733749993,Bergerweg,3-LOC,1862 JS,Bergen,Netherlands,4.7179238,52.6584262,"https://www.google.com/maps?q=52.6584262,4.7179238",North Holland
733749994,Bergerweg,3-LOC,1862 JS,Bergen,Netherlands,4.7179309,52.6584768,"https://www.google.com/maps?q=52.6584768,4.7179309",North Holland
733749995,Bergerweg,3-LOC,1862 JS,Bergen,Netherlands,4.7179469,52.65853,"https://www.google.com/maps?q=52.65853,4.7179469",North Holland
733749996,Bergerweg,3-LOC,1862 JS,Bergen,Netherlands,4.7179154,52.6585861,"https://www.google.com/maps?q=52.6585861,4.7179154",North Holland
733749997,Bergerweg,125,1862 PR,Bergen,Netherlands,4.7178817,52.6586426,"https://www.google.com/maps?q=52.6586426,4.7178817",North Holland
733749998,Bergerweg,125,1862 PR,Bergen,Netherlands,4.7178479,52.6586957,"https://www.google.com/maps?q=52.6586957,4.7178479",North Holland
733749999,Bergerweg,125,1862 PR,Bergen,Netherlands,4.7178192,52.6587514,"https://www.google.com/maps?q=52.6587514,4.7178192",North Holland
733750000,Bergerweg,127-TRAF,1862 XR,Bergen,Netherlands,4.719049,52.6584762,"https://www.google.com/maps?q=52.6584762,4.719049",North Holland
733750001,Bergerweg,127-TRAF,1862 XR,Bergen,Netherlands,4.7190429,52.6583803,"https://www.google.com/maps?q=52.6583803,4.7190429",North Holland
733750002,Bergerweg,127-TRAF,1862 XR,Bergen,Netherlands,4.7191953,52.6582817,"https://www.google.com/maps?q=52.6582817,4.7191953",North Holland
733750003,Bergerweg,127-TRAF,1862 XR,Bergen,Netherlands,4.7193549,52.6581824,"https://www.google.com/maps?q=52.6581824,4.7193549",North Holland
733750004,Bergerweg,127-TRAF,1862 XR,Bergen,Netherlands,4.7190924,52.6583329,"https://www.google.com/maps?q=52.6583329,4.7190924",North Holland
733750005,Bergerweg,127-TRAF,1862 XR,Bergen,Netherlands,4.7190524,52.6585245,"https://www.google.com/maps?q=52.6585245,4.7190524",North Holland
733750006,Bergerweg,127-TRAF,1862 XR,Bergen,Netherlands,4.7188484,52.6588164,"https://www.google.com/maps?q=52.6588164,4.7188484",North Holland
733750007,Bergerweg,127-TRAF,1862 XR,Bergen,Netherlands,4.7190076,52.6587171,"https://www.google.com/maps?q=52.6587171,4.7190076",North Holland
733750008,Bergerweg,127-TRAF,1862 XR,Bergen,Netherlands,4.7190462,52.6584286,"https://www.google.com/maps?q=52.6584286,4.7190462",North Holland
733750009,Bergerweg,127-TRAF,1862 XR,Bergen,Netherlands,4.7190053,52.6586701,"https://www.google.com/maps?q=52.6586701,4.7190053",North Holland
733750010,Bergerweg,127-TRAF,1862 XR,Bergen,Netherlands,4.7189553,52.6587646,"https://www.google.com/maps?q=52.6587646,4.7189553",North Holland
733750011,Bergerweg,127-TRAF,1862 XR,Bergen,Netherlands,4.7190025,52.6586226,"https://www.google.com/maps?q=52.6586226,4.7190025",North Holland
733750012,Bergerweg,127-TRAF,1862 XR,Bergen,Netherlands,4.7189991,52.6585743,"https://www.google.com/maps?q=52.6585743,4.7189991",North Holland
733750013,Bergerweg,127-TRAF,1862 XR,Bergen,Netherlands,4.7192493,52.6582337,"https://www.google.com/maps?q=52.6582337,4.7192493",North Holland
733750014,Bergerweg,127B-TRAF,1862 XR,Bergen,Netherlands,4.7204071,52.6587818,"https://www.google.com/maps?q=52.6587818,4.7204071",North Holland
733750015,Bergerweg,127B-TRAF,1862 XR,Bergen,Netherlands,4.7204041,52.6587337,"https://www.google.com/maps?q=52.6587337,4.7204041",North Holland
733750016,Bergerweg,127B-TRAF,1862 XR,Bergen,Netherlands,4.7204021,52.6586874,"https://www.google.com/maps?q=52.6586874,4.7204021",North Holland
733750017,Bergerweg,127B-TRAF,1862 XR,Bergen,Netherlands,4.720397,52.6585928,"https://www.google.com/maps?q=52.6585928,4.720397",North Holland
733750018,Bergerweg,127B-TRAF,1862 XR,Bergen,Netherlands,4.7203997,52.6586403,"https://www.google.com/maps?q=52.6586403,4.7203997",North Holland
733750019,Bergerweg,127B-TRAF,1862 XR,Bergen,Netherlands,4.7204429,52.6585434,"https://www.google.com/maps?q=52.6585434,4.7204429",North Holland
733750020,Bergerweg,127B-TRAF,1862 XR,Bergen,Netherlands,4.7204401,52.6584948,"https://www.google.com/maps?q=52.6584948,4.7204401",North Holland
733750021,Bergerweg,127B-TRAF,1862 XR,Bergen,Netherlands,4.720434,52.658399,"https://www.google.com/maps?q=52.658399,4.720434",North Holland
733750022,Bergerweg,127B-TRAF,1862 XR,Bergen,Netherlands,4.7204366,52.6584466,"https://www.google.com/maps?q=52.6584466,4.7204366",North Holland
733750023,Bergerweg,127B-TRAF,1862 XR,Bergen,Netherlands,4.7204863,52.6583495,"https://www.google.com/maps?q=52.6583495,4.7204863",North Holland
733750024,Bergerweg,127B-TRAF,1862 XR,Bergen,Netherlands,4.7204812,52.6582541,"https://www.google.com/maps?q=52.6582541,4.7204812",North Holland
733750025,Bergerweg,127B-TRAF,1862 XR,Bergen,Netherlands,4.7204828,52.6583032,"https://www.google.com/maps?q=52.6583032,4.7204828",North Holland
733750026,Bergerweg,127B-TRAF,1862 XR,Bergen,Netherlands,4.7204758,52.6582073,"https://www.google.com/maps?q=52.6582073,4.7204758",North Holland
733750027,Bergerweg,127B-TRAF,1862 XR,Bergen,Netherlands,4.7204742,52.6581582,"https://www.google.com/maps?q=52.6581582,4.7204742",North Holland
739573255,Huiskebuurtweg,,1749 CL,Warmenhuizen,Netherlands,4.7344315,52.6960994,"https://www.google.com/maps?q=52.6960994,4.7344315",North Holland
739573256,Huiskebuurtweg,,1749 CL,Warmenhuizen,Netherlands,4.7343001,52.696036,"https://www.google.com/maps?q=52.696036,4.7343001",North Holland
739573257,Huiskebuurtweg,,1749 CL,Warmenhuizen,Netherlands,4.7341793,52.6959214,"https://www.google.com/maps?q=52.6959214,4.7341793",North Holland
739573258,Huiskebuurtweg,,1749 CL,Warmenhuizen,Netherlands,4.7340586,52.6958287,"https://www.google.com/maps?q=52.6958287,4.7340586",North Holland
739573259,Huiskebuurtweg,,1749 CL,Warmenhuizen,Netherlands,4.73393,52.6957288,"https://www.google.com/maps?q=52.6957288,4.73393",North Holland
739573260,Huiskebuurtweg,,1749 CL,Warmenhuizen,Netherlands,4.7337811,52.6957152,"https://www.google.com/maps?q=52.6957152,4.7337811",North Holland
746284339,Polderweg,,1471 EA,Purmerend,Netherlands,5.00298,52.5246296,"https://www.google.com/maps?q=52.5246296,5.00298",North Holland
746284340,Polderweg,,1471 EA,Purmerend,Netherlands,5.0030536,52.5247028,"https://www.google.com/maps?q=52.5247028,5.0030536",North Holland
746284341,Polderweg,,1471 EA,Purmerend,Netherlands,5.0031251,52.5247738,"https://www.google.com/maps?q=52.5247738,5.0031251",North Holland
746284342,Polderweg,,1471 EA,Purmerend,Netherlands,5.0031928,52.5248464,"https://www.google.com/maps?q=52.5248464,5.0031928",North Holland
746284343,Polderweg,,1471 EA,Purmerend,Netherlands,5.0032619,52.5249192,"https://www.google.com/maps?q=52.5249192,5.0032619",North Holland
746284344,Purmerdijk,,1471 EB,Purmerend,Netherlands,5.0033344,52.5249886,"https://www.google.com/maps?q=52.5249886,5.0033344",North Holland
746284345,Purmerdijk,,1471 EB,Purmerend,Netherlands,5.0038609,52.5249896,"https://www.google.com/maps?q=52.5249896,5.0038609",North Holland
746284346,Polderweg,,1471 EA,Purmerend,Netherlands,5.0039281,52.5249205,"https://www.google.com/maps?q=52.5249205,5.0039281",North Holland
746284347,Polderweg,,1471 EA,Purmerend,Netherlands,5.0039992,52.524848,"https://www.google.com/maps?q=52.524848,5.0039992",North Holland
746284348,Polderweg,,1471 EA,Purmerend,Netherlands,5.0040565,52.5247756,"https://www.google.com/maps?q=52.5247756,5.0040565",North Holland
746284349,Polderweg,,1471 EA,Purmerend,Netherlands,5.0041246,52.5247049,"https://www.google.com/maps?q=52.5247049,5.0041246",North Holland
746284350,Polderweg,,1471 EA,Purmerend,Netherlands,5.0041882,52.5246321,"https://www.google.com/maps?q=52.5246321,5.0041882",North Holland
746284351,Polderweg,,1471 EA,Purmerend,Netherlands,5.0041844,52.5245618,"https://www.google.com/maps?q=52.5245618,5.0041844",North Holland
746284352,Polderweg,,1471 EA,Purmerend,Netherlands,5.0043204,52.5244895,"https://www.google.com/maps?q=52.5244895,5.0043204",North Holland
746284353,Polderweg,,1471 EA,Purmerend,Netherlands,5.0044585,52.5244172,"https://www.google.com/maps?q=52.5244172,5.0044585",North Holland
746284354,Polderweg,,1471 EA,Purmerend,Netherlands,5.004459,52.5243464,"https://www.google.com/maps?q=52.5243464,5.004459",North Holland
746284355,Polderweg,,1471 EA,Purmerend,Netherlands,5.0045958,52.5242737,"https://www.google.com/maps?q=52.5242737,5.0045958",North Holland
746284356,Polderweg,,1471 EA,Purmerend,Netherlands,5.0047329,52.5242017,"https://www.google.com/maps?q=52.5242017,5.0047329",North Holland
746284357,Polderweg,,1471 EA,Purmerend,Netherlands,5.0048696,52.5241295,"https://www.google.com/maps?q=52.5241295,5.0048696",North Holland
746284358,Polderweg,,1471 EA,Purmerend,Netherlands,5.0048699,52.5240568,"https://www.google.com/maps?q=52.5240568,5.0048699",North Holland
746284359,Polderweg,,1471 EA,Purmerend,Netherlands,5.0051591,52.5239866,"https://www.google.com/maps?q=52.5239866,5.0051591",North Holland
746284360,Polderweg,,1471 EA,Purmerend,Netherlands,5.0051594,52.5239136,"https://www.google.com/maps?q=52.5239136,5.0051594",North Holland
746284361,Polderweg,,1471 EA,Purmerend,Netherlands,5.0052087,52.5238435,"https://www.google.com/maps?q=52.5238435,5.0052087",North Holland
746284362,Polderweg,,1471 EA,Purmerend,Netherlands,5.005209,52.5237709,"https://www.google.com/maps?q=52.5237709,5.005209",North Holland
746284363,Polderweg,,1471 EA,Purmerend,Netherlands,5.0052094,52.5236983,"https://www.google.com/maps?q=52.5236983,5.0052094",North Holland
746284364,Polderweg,,1471 EA,Purmerend,Netherlands,5.0052098,52.5236275,"https://www.google.com/maps?q=52.5236275,5.0052098",North Holland
746284365,Polderweg,,1471 EA,Purmerend,Netherlands,5.0052101,52.5235545,"https://www.google.com/maps?q=52.5235545,5.0052101",North Holland
746284366,Polderweg,,1471 EA,Purmerend,Netherlands,5.0024426,52.5231167,"https://www.google.com/maps?q=52.5231167,5.0024426",North Holland
746284367,Polderweg,,1471 EA,Purmerend,Netherlands,5.0025258,52.523189,"https://www.google.com/maps?q=52.523189,5.0025258",North Holland
746284368,Polderweg,,1471 EA,Purmerend,Netherlands,5.002526,52.523262,"https://www.google.com/maps?q=52.523262,5.002526",North Holland
746284369,Polderweg,,1471 EA,Purmerend,Netherlands,5.0025262,52.5233329,"https://www.google.com/maps?q=52.5233329,5.0025262",North Holland
746284370,Polderweg,,1471 EA,Purmerend,Netherlands,5.0025264,52.5234054,"https://www.google.com/maps?q=52.5234054,5.0025264",North Holland
746284371,Polderweg,,1471 EA,Purmerend,Netherlands,5.0025263,52.523478,"https://www.google.com/maps?q=52.523478,5.0025263",North Holland
746284372,Polderweg,,1471 EA,Purmerend,Netherlands,5.0052106,52.5234834,"https://www.google.com/maps?q=52.5234834,5.0052106",North Holland
746284373,Polderweg,,1471 EA,Purmerend,Netherlands,5.005211,52.5234108,"https://www.google.com/maps?q=52.5234108,5.005211",North Holland
746284374,Polderweg,,1471 EA,Purmerend,Netherlands,5.0052113,52.5233383,"https://www.google.com/maps?q=52.5233383,5.0052113",North Holland
746284375,Polderweg,,1471 EA,Purmerend,Netherlands,5.0052117,52.5232674,"https://www.google.com/maps?q=52.5232674,5.0052117",North Holland
746284376,Polderweg,,1471 EA,Purmerend,Netherlands,5.0052122,52.5231944,"https://www.google.com/maps?q=52.5231944,5.0052122",North Holland
746284377,Polderweg,,1471 EA,Purmerend,Netherlands,5.0052125,52.5231222,"https://www.google.com/maps?q=52.5231222,5.0052125",North Holland
746284378,Polderweg,,1471 EA,Purmerend,Netherlands,5.0076291,52.5226213,"https://www.google.com/maps?q=52.5226213,5.0076291",North Holland
746284379,Polderweg,,1471 EA,Purmerend,Netherlands,5.0076289,52.5226939,"https://www.google.com/maps?q=52.5226939,5.0076289",North Holland
746284380,Polderweg,,1471 EA,Purmerend,Netherlands,5.0076285,52.5227664,"https://www.google.com/maps?q=52.5227664,5.0076285",North Holland
746284381,Polderweg,,1471 EA,Purmerend,Netherlands,5.0076282,52.5228381,"https://www.google.com/maps?q=52.5228381,5.0076282",North Holland
746284382,Polderweg,,1471 EA,Purmerend,Netherlands,5.0076278,52.522911,"https://www.google.com/maps?q=52.522911,5.0076278",North Holland
746284383,Polderweg,,1471 EA,Purmerend,Netherlands,5.0077611,52.5229821,"https://www.google.com/maps?q=52.5229821,5.0077611",North Holland
746284384,Polderweg,,1471 EA,Purmerend,Netherlands,5.0078567,52.5230549,"https://www.google.com/maps?q=52.5230549,5.0078567",North Holland
746284385,Polderweg,,1471 EA,Purmerend,Netherlands,5.0079296,52.5231276,"https://www.google.com/maps?q=52.5231276,5.0079296",North Holland
746284386,Polderweg,,1471 EA,Purmerend,Netherlands,5.0079387,52.5231999,"https://www.google.com/maps?q=52.5231999,5.0079387",North Holland
746284387,Polderweg,,1471 EA,Purmerend,Netherlands,5.0078799,52.5232727,"https://www.google.com/maps?q=52.5232727,5.0078799",North Holland
746284388,Polderweg,,1471 EA,Purmerend,Netherlands,5.0077261,52.5233433,"https://www.google.com/maps?q=52.5233433,5.0077261",North Holland
746284389,Polderweg,,1471 EA,Purmerend,Netherlands,5.0076228,52.5234156,"https://www.google.com/maps?q=52.5234156,5.0076228",North Holland
746284390,Polderweg,,1471 EA,Purmerend,Netherlands,5.0074856,52.523488,"https://www.google.com/maps?q=52.523488,5.0074856",North Holland
746284391,Polderweg,,1471 EA,Purmerend,Netherlands,5.0073481,52.5235588,"https://www.google.com/maps?q=52.5235588,5.0073481",North Holland
746284392,Polderweg,,1471 EA,Purmerend,Netherlands,5.0073476,52.5236318,"https://www.google.com/maps?q=52.5236318,5.0073476",North Holland
746284393,Polderweg,,1471 EA,Purmerend,Netherlands,5.0025283,52.5236221,"https://www.google.com/maps?q=52.5236221,5.0025283",North Holland
746284394,Polderweg,,1471 EA,Purmerend,Netherlands,5.0024577,52.523549,"https://www.google.com/maps?q=52.523549,5.0024577",North Holland
746284395,Polderweg,,1471 EA,Purmerend,Netherlands,5.0056248,52.5230504,"https://www.google.com/maps?q=52.5230504,5.0056248",North Holland
746284396,Polderweg,,1471 EA,Purmerend,Netherlands,5.0058998,52.5229784,"https://www.google.com/maps?q=52.5229784,5.0058998",North Holland
746284397,Polderweg,,1471 EA,Purmerend,Netherlands,5.006035,52.5229078,"https://www.google.com/maps?q=52.5229078,5.006035",North Holland
746284398,Polderweg,,1471 EA,Purmerend,Netherlands,5.0061742,52.5228352,"https://www.google.com/maps?q=52.5228352,5.0061742",North Holland
746284399,Polderweg,,1471 EA,Purmerend,Netherlands,5.0063116,52.5227638,"https://www.google.com/maps?q=52.5227638,5.0063116",North Holland
746284400,Polderweg,,1471 EA,Purmerend,Netherlands,5.0064486,52.5226916,"https://www.google.com/maps?q=52.5226916,5.0064486",North Holland
746284401,Polderweg,,1471 EA,Purmerend,Netherlands,5.0065313,52.5226191,"https://www.google.com/maps?q=52.5226191,5.0065313",North Holland
746284402,Polderweg,,1471 EA,Purmerend,Netherlands,5.0072086,52.5237023,"https://www.google.com/maps?q=52.5237023,5.0072086",North Holland
746284403,Polderweg,,1471 EA,Purmerend,Netherlands,5.002599,52.5236931,"https://www.google.com/maps?q=52.5236931,5.002599",North Holland
746284404,Polderweg,,1471 EA,Purmerend,Netherlands,5.007071,52.5237746,"https://www.google.com/maps?q=52.5237746,5.007071",North Holland
746284405,Polderweg,,1471 EA,Purmerend,Netherlands,5.0026713,52.5237658,"https://www.google.com/maps?q=52.5237658,5.0026713",North Holland
746284406,Polderweg,,1471 EA,Purmerend,Netherlands,5.0070706,52.5238472,"https://www.google.com/maps?q=52.5238472,5.0070706",North Holland
746284407,Polderweg,,1471 EA,Purmerend,Netherlands,5.0026059,52.5238383,"https://www.google.com/maps?q=52.5238383,5.0026059",North Holland
746284408,Polderweg,,1471 EA,Purmerend,Netherlands,5.0076753,52.522192,"https://www.google.com/maps?q=52.522192,5.0076753",North Holland
746284409,Polderweg,,1471 EA,Purmerend,Netherlands,5.0076302,52.5222628,"https://www.google.com/maps?q=52.5222628,5.0076302",North Holland
746284410,Polderweg,,1471 EA,Purmerend,Netherlands,5.0076265,52.522408,"https://www.google.com/maps?q=52.522408,5.0076265",North Holland
746284411,Polderweg,,1471 EA,Purmerend,Netherlands,5.0075525,52.5223352,"https://www.google.com/maps?q=52.5223352,5.0075525",North Holland
746284412,Polderweg,,1471 EA,Purmerend,Netherlands,5.0076292,52.5225505,"https://www.google.com/maps?q=52.5225505,5.0076292",North Holland
746284413,Polderweg,,1471 EA,Purmerend,Netherlands,5.0076954,52.5224776,"https://www.google.com/maps?q=52.5224776,5.0076954",North Holland
746284414,Purmerdijk,,1471 EB,Purmerend,Netherlands,5.0034119,52.5250617,"https://www.google.com/maps?q=52.5250617,5.0034119",North Holland
746284415,Purmerdijk,,1471 EB,Purmerend,Netherlands,5.0033462,52.5251324,"https://www.google.com/maps?q=52.5251324,5.0033462",North Holland
746284416,Polderweg,,1471 EA,Purmerend,Netherlands,5.002834,52.5243432,"https://www.google.com/maps?q=52.5243432,5.002834",North Holland
746284417,Polderweg,,1471 EA,Purmerend,Netherlands,5.0027671,52.5244138,"https://www.google.com/maps?q=52.5244138,5.0027671",North Holland
746284418,Polderweg,,1471 EA,Purmerend,Netherlands,5.0029079,52.5245592,"https://www.google.com/maps?q=52.5245592,5.0029079",North Holland
746284419,Polderweg,,1471 EA,Purmerend,Netherlands,5.0028394,52.5244866,"https://www.google.com/maps?q=52.5244866,5.0028394",North Holland
746284420,Polderweg,,1471 EA,Purmerend,Netherlands,5.0027611,52.52427,"https://www.google.com/maps?q=52.52427,5.0027611",North Holland
746284421,Polderweg,,1471 EA,Purmerend,Netherlands,5.0026109,52.5239815,"https://www.google.com/maps?q=52.5239815,5.0026109",North Holland
746284422,Polderweg,,1471 EA,Purmerend,Netherlands,5.0026845,52.5240525,"https://www.google.com/maps?q=52.5240525,5.0026845",North Holland
746284423,Polderweg,,1471 EA,Purmerend,Netherlands,5.0026885,52.5241977,"https://www.google.com/maps?q=52.5241977,5.0026885",North Holland
746284424,Polderweg,,1471 EA,Purmerend,Netherlands,5.0026196,52.524125,"https://www.google.com/maps?q=52.524125,5.0026196",North Holland
746284425,Polderweg,,1471 EA,Purmerend,Netherlands,5.0025371,52.5239084,"https://www.google.com/maps?q=52.5239084,5.0025371",North Holland
795351489,Kruisweg,4,2132 NP,Hoofddorp,Netherlands,4.7148785,52.2967067,"https://www.google.com/maps?q=52.2967067,4.7148785",North Holland
795351490,Kruisweg,4,2132 NP,Hoofddorp,Netherlands,4.7147736,52.2967608,"https://www.google.com/maps?q=52.2967608,4.7147736",North Holland
795351491,Kruisweg,4,2132 NP,Hoofddorp,Netherlands,4.7146769,52.2968146,"https://www.google.com/maps?q=52.2968146,4.7146769",North Holland
795351492,Kruisweg,751,2132 NE,Hoofddorp,Netherlands,4.7145922,52.2968687,"https://www.google.com/maps?q=52.2968687,4.7145922",North Holland
795351493,Kruisweg,751,2132 NE,Hoofddorp,Netherlands,4.7144942,52.2969224,"https://www.google.com/maps?q=52.2969224,4.7144942",North Holland
795351494,Kruisweg,751,2132 NE,Hoofddorp,Netherlands,4.7143746,52.296976,"https://www.google.com/maps?q=52.296976,4.7143746",North Holland
795351495,Kruisweg,751,2132 NE,Hoofddorp,Netherlands,4.714302,52.2970303,"https://www.google.com/maps?q=52.2970303,4.714302",North Holland
795351496,Kruisweg,751,2132 NE,Hoofddorp,Netherlands,4.7141931,52.297084,"https://www.google.com/maps?q=52.297084,4.7141931",North Holland
795351497,Kruisweg,751,2132 NE,Hoofddorp,Netherlands,4.7139036,52.2972448,"https://www.google.com/maps?q=52.2972448,4.7139036",North Holland
795351498,Kruisweg,751,2132 NE,Hoofddorp,Netherlands,4.7140958,52.2971372,"https://www.google.com/maps?q=52.2971372,4.7140958",North Holland
795351499,Kruisweg,751,2132 NE,Hoofddorp,Netherlands,4.7140113,52.2971918,"https://www.google.com/maps?q=52.2971918,4.7140113",North Holland
795351500,Kruisweg,751,2132 NE,Hoofddorp,Netherlands,4.713806,52.297299,"https://www.google.com/maps?q=52.297299,4.713806",North Holland
795351501,Kruisweg,751,2132 NE,Hoofddorp,Netherlands,4.7137219,52.297353,"https://www.google.com/maps?q=52.297353,4.7137219",North Holland
795351502,Kruisweg,751,2132 NE,Hoofddorp,Netherlands,4.7136337,52.2974076,"https://www.google.com/maps?q=52.2974076,4.7136337",North Holland
795351503,Kruisweg,755F,2132 NE,Hoofddorp,Netherlands,4.7136348,52.2974615,"https://www.google.com/maps?q=52.2974615,4.7136348",North Holland
795351504,Kruisweg,755F,2132 NE,Hoofddorp,Netherlands,4.713788,52.2975167,"https://www.google.com/maps?q=52.2975167,4.713788",North Holland
795351505,Kruisweg,755F,2132 NE,Hoofddorp,Netherlands,4.7138667,52.2975716,"https://www.google.com/maps?q=52.2975716,4.7138667",North Holland
795351506,Kruisweg,755F,2132 NE,Hoofddorp,Netherlands,4.7139456,52.2976269,"https://www.google.com/maps?q=52.2976269,4.7139456",North Holland
795351507,Kruisweg,755F,2132 NE,Hoofddorp,Netherlands,4.714025,52.2976814,"https://www.google.com/maps?q=52.2976814,4.714025",North Holland
795351508,Kruisweg,755F,2132 NE,Hoofddorp,Netherlands,4.7140169,52.2977357,"https://www.google.com/maps?q=52.2977357,4.7140169",North Holland
795351509,Kruisweg,755F,2132 NE,Hoofddorp,Netherlands,4.7141442,52.2977908,"https://www.google.com/maps?q=52.2977908,4.7141442",North Holland
795351510,Kruisweg,755F,2132 NE,Hoofddorp,Netherlands,4.7149589,52.2983991,"https://www.google.com/maps?q=52.2983991,4.7149589",North Holland
795351511,Kruisweg,755F,2132 NE,Hoofddorp,Netherlands,4.714981,52.298287,"https://www.google.com/maps?q=52.298287,4.714981",North Holland
795351512,Kruisweg,751,2132 NE,Hoofddorp,Netherlands,4.7150638,52.2980197,"https://www.google.com/maps?q=52.2980197,4.7150638",North Holland
795351513,Kruisweg,751,2132 NE,Hoofddorp,Netherlands,4.7149985,52.2982334,"https://www.google.com/maps?q=52.2982334,4.7149985",North Holland
795351514,Kruisweg,751,2132 NE,Hoofddorp,Netherlands,4.7150529,52.2980708,"https://www.google.com/maps?q=52.2980708,4.7150529",North Holland
795351515,Kruisweg,751,2132 NE,Hoofddorp,Netherlands,4.7150414,52.2981266,"https://www.google.com/maps?q=52.2981266,4.7150414",North Holland
795351516,Kruisweg,751,2132 NE,Hoofddorp,Netherlands,4.7150338,52.298181,"https://www.google.com/maps?q=52.298181,4.7150338",North Holland
795351517,Kruisweg,755F,2132 NE,Hoofddorp,Netherlands,4.7149775,52.2983405,"https://www.google.com/maps?q=52.2983405,4.7149775",North Holland
795351518,Kruisweg,751,2132 NE,Hoofddorp,Netherlands,4.715136,52.2979112,"https://www.google.com/maps?q=52.2979112,4.715136",North Holland
795351519,Kruisweg,751,2132 NE,Hoofddorp,Netherlands,4.7150402,52.2979637,"https://www.google.com/maps?q=52.2979637,4.7150402",North Holland
795351520,Kruisweg,751,2132 NE,Hoofddorp,Netherlands,4.7152343,52.2978573,"https://www.google.com/maps?q=52.2978573,4.7152343",North Holland
795351521,Rijnlanderweg,855A,2132 NM,Hoofddorp,Netherlands,4.715636,52.2976389,"https://www.google.com/maps?q=52.2976389,4.715636",North Holland
795351522,Kruisweg,751,2132 NE,Hoofddorp,Netherlands,4.7155367,52.2976914,"https://www.google.com/maps?q=52.2976914,4.7155367",North Holland
795351523,Rijnlanderweg,855A,2132 NM,Hoofddorp,Netherlands,4.7157332,52.297585,"https://www.google.com/maps?q=52.297585,4.7157332",North Holland
795351524,Kruisweg,751,2132 NE,Hoofddorp,Netherlands,4.7154345,52.297746,"https://www.google.com/maps?q=52.297746,4.7154345",North Holland
795351525,Kruisweg,751,2132 NE,Hoofddorp,Netherlands,4.7153345,52.2977997,"https://www.google.com/maps?q=52.2977997,4.7153345",North Holland
795351526,Rijnlanderweg,855A,2132 NM,Hoofddorp,Netherlands,4.7168309,52.2967766,"https://www.google.com/maps?q=52.2967766,4.7168309",North Holland
795351527,Rijnlanderweg,855A,2132 NM,Hoofddorp,Netherlands,4.7168172,52.2968296,"https://www.google.com/maps?q=52.2968296,4.7168172",North Holland
795351528,Rijnlanderweg,855A,2132 NM,Hoofddorp,Netherlands,4.7166194,52.2967169,"https://www.google.com/maps?q=52.2967169,4.7166194",North Holland
795351529,Rijnlanderweg,855A,2132 NM,Hoofddorp,Netherlands,4.7168104,52.2968851,"https://www.google.com/maps?q=52.2968851,4.7168104",North Holland
795351530,Rijnlanderweg,855A,2132 NM,Hoofddorp,Netherlands,4.716799,52.2969393,"https://www.google.com/maps?q=52.2969393,4.716799",North Holland
795351531,Rijnlanderweg,855A,2132 NM,Hoofddorp,Netherlands,4.7167316,52.2970484,"https://www.google.com/maps?q=52.2970484,4.7167316",North Holland
795351532,Rijnlanderweg,855A,2132 NM,Hoofddorp,Netherlands,4.7165317,52.2971554,"https://www.google.com/maps?q=52.2971554,4.7165317",North Holland
795351533,Rijnlanderweg,855A,2132 NM,Hoofddorp,Netherlands,4.716133,52.2973699,"https://www.google.com/maps?q=52.2973699,4.716133",North Holland
795351534,Rijnlanderweg,855A,2132 NM,Hoofddorp,Netherlands,4.7166333,52.2971009,"https://www.google.com/maps?q=52.2971009,4.7166333",North Holland
795351535,Rijnlanderweg,855A,2132 NM,Hoofddorp,Netherlands,4.7167909,52.2969942,"https://www.google.com/maps?q=52.2969942,4.7167909",North Holland
795351536,Rijnlanderweg,855A,2132 NM,Hoofddorp,Netherlands,4.7159318,52.2974798,"https://www.google.com/maps?q=52.2974798,4.7159318",North Holland
795351537,Rijnlanderweg,855A,2132 NM,Hoofddorp,Netherlands,4.7163303,52.2972633,"https://www.google.com/maps?q=52.2972633,4.7163303",North Holland
795351538,Rijnlanderweg,855A,2132 NM,Hoofddorp,Netherlands,4.7160334,52.2974253,"https://www.google.com/maps?q=52.2974253,4.7160334",North Holland
795351539,Rijnlanderweg,855A,2132 NM,Hoofddorp,Netherlands,4.7164295,52.2972091,"https://www.google.com/maps?q=52.2972091,4.7164295",North Holland
795351540,Rijnlanderweg,855A,2132 NM,Hoofddorp,Netherlands,4.7162297,52.2973178,"https://www.google.com/maps?q=52.2973178,4.7162297",North Holland
795351541,Kruisweg,755F,2132 NE,Hoofddorp,Netherlands,4.7138752,52.2982805,"https://www.google.com/maps?q=52.2982805,4.7138752",North Holland
795351542,Kruisweg,755F,2132 NE,Hoofddorp,Netherlands,4.7138566,52.2983916,"https://www.google.com/maps?q=52.2983916,4.7138566",North Holland
795351543,Kruisweg,755F,2132 NE,Hoofddorp,Netherlands,4.7138656,52.2983365,"https://www.google.com/maps?q=52.2983365,4.7138656",North Holland
795351544,Kruisweg,755F,2132 NE,Hoofddorp,Netherlands,4.7139181,52.2982279,"https://www.google.com/maps?q=52.2982279,4.7139181",North Holland
795351545,Kruisweg,755F,2132 NE,Hoofddorp,Netherlands,4.7138319,52.2985014,"https://www.google.com/maps?q=52.2985014,4.7138319",North Holland
795351546,Kruisweg,755F,2132 NE,Hoofddorp,Netherlands,4.7138035,52.2986095,"https://www.google.com/maps?q=52.2986095,4.7138035",North Holland
795351547,Kruisweg,755F,2132 NE,Hoofddorp,Netherlands,4.7134474,52.2988218,"https://www.google.com/maps?q=52.2988218,4.7134474",North Holland
795351548,Kruisweg,755F,2132 NE,Hoofddorp,Netherlands,4.7138181,52.2985544,"https://www.google.com/maps?q=52.2985544,4.7138181",North Holland
795351549,Kruisweg,755F,2132 NE,Hoofddorp,Netherlands,4.7138403,52.298447,"https://www.google.com/maps?q=52.298447,4.7138403",North Holland
795351550,Kruisweg,755F,2132 NE,Hoofddorp,Netherlands,4.7132464,52.2989317,"https://www.google.com/maps?q=52.2989317,4.7132464",North Holland
795351551,Kruisweg,755F,2132 NE,Hoofddorp,Netherlands,4.7136465,52.2987151,"https://www.google.com/maps?q=52.2987151,4.7136465",North Holland
795351552,Kruisweg,755F,2132 NE,Hoofddorp,Netherlands,4.713349,52.2988771,"https://www.google.com/maps?q=52.2988771,4.713349",North Holland
795351553,Kruisweg,755F,2132 NE,Hoofddorp,Netherlands,4.7137457,52.2986636,"https://www.google.com/maps?q=52.2986636,4.7137457",North Holland
795351554,Kruisweg,755F,2132 NE,Hoofddorp,Netherlands,4.7135459,52.2987697,"https://www.google.com/maps?q=52.2987697,4.7135459",North Holland
795351557,Kruisweg,755F,2132 NE,Hoofddorp,Netherlands,4.7131124,52.2977304,"https://www.google.com/maps?q=52.2977304,4.7131124",North Holland
795351564,Kruisweg,755F,2132 NE,Hoofddorp,Netherlands,4.7131326,52.2976757,"https://www.google.com/maps?q=52.2976757,4.7131326",North Holland
795351570,Kruisweg,773,2132 NG,Hoofddorp,Netherlands,4.711486,52.2988666,"https://www.google.com/maps?q=52.2988666,4.711486",North Holland
795351574,Kruisweg,785C,2132 NG,Hoofddorp,Netherlands,4.7113875,52.2989214,"https://www.google.com/maps?q=52.2989214,4.7113875",North Holland
795351579,Kruisweg,765,2132 NG,Hoofddorp,Netherlands,4.7122533,52.2990341,"https://www.google.com/maps?q=52.2990341,4.7122533",North Holland
795351580,Kruisweg,765,2132 NG,Hoofddorp,Netherlands,4.7122824,52.2989805,"https://www.google.com/maps?q=52.2989805,4.7122824",North Holland
795351581,Weg om de Noord,,2132 PP,Hoofddorp,Netherlands,4.7118005,52.3001179,"https://www.google.com/maps?q=52.3001179,4.7118005",North Holland
795351582,Weg om de Noord,,2132 PP,Hoofddorp,Netherlands,4.711903,52.2998449,"https://www.google.com/maps?q=52.2998449,4.711903",North Holland
795351583,Weg om de Noord,,2132 PP,Hoofddorp,Netherlands,4.7121291,52.2993029,"https://www.google.com/maps?q=52.2993029,4.7121291",North Holland
795351584,Kruisweg,765,2132 NG,Hoofddorp,Netherlands,4.7122079,52.299142,"https://www.google.com/maps?q=52.299142,4.7122079",North Holland
795351585,Weg om de Noord,,2132 PP,Hoofddorp,Netherlands,4.7118516,52.2999527,"https://www.google.com/maps?q=52.2999527,4.7118516",North Holland
795351586,Weg om de Noord,,2132 PP,Hoofddorp,Netherlands,4.7119338,52.2997938,"https://www.google.com/maps?q=52.2997938,4.7119338",North Holland
795351587,Weg om de Noord,,2132 PP,Hoofddorp,Netherlands,4.7121537,52.2992493,"https://www.google.com/maps?q=52.2992493,4.7121537",North Holland
795351588,Weg om de Noord,,2132 PP,Hoofddorp,Netherlands,4.7119601,52.2997398,"https://www.google.com/maps?q=52.2997398,4.7119601",North Holland
795351589,Weg om de Noord,,2132 PP,Hoofddorp,Netherlands,4.711991,52.2996291,"https://www.google.com/maps?q=52.2996291,4.711991",North Holland
795351590,Weg om de Noord,,2132 PP,Hoofddorp,Netherlands,4.7119771,52.2996861,"https://www.google.com/maps?q=52.2996861,4.7119771",North Holland
795351591,Weg om de Noord,,2132 PP,Hoofddorp,Netherlands,4.7120156,52.2995746,"https://www.google.com/maps?q=52.2995746,4.7120156",North Holland
795351592,Kruisweg,765,2132 NG,Hoofddorp,Netherlands,4.7122301,52.2990889,"https://www.google.com/maps?q=52.2990889,4.7122301",North Holland
795351593,Weg om de Noord,,2132 PP,Hoofddorp,Netherlands,4.7120467,52.2995205,"https://www.google.com/maps?q=52.2995205,4.7120467",North Holland
795351594,Weg om de Noord,,2132 PP,Hoofddorp,Netherlands,4.7118461,52.3000075,"https://www.google.com/maps?q=52.3000075,4.7118461",North Holland
795351595,Weg om de Noord,,2132 PP,Hoofddorp,Netherlands,4.7118184,52.3000634,"https://www.google.com/maps?q=52.3000634,4.7118184",North Holland
795351596,Weg om de Noord,,2132 PP,Hoofddorp,Netherlands,4.7120751,52.2994674,"https://www.google.com/maps?q=52.2994674,4.7120751",North Holland
795351597,Weg om de Noord,,2132 PP,Hoofddorp,Netherlands,4.7120899,52.2994132,"https://www.google.com/maps?q=52.2994132,4.7120899",North Holland
795351598,Weg om de Noord,,2132 PP,Hoofddorp,Netherlands,4.7118821,52.2999019,"https://www.google.com/maps?q=52.2999019,4.7118821",North Holland
795351599,Weg om de Noord,,2132 PP,Hoofddorp,Netherlands,4.7121199,52.2993567,"https://www.google.com/maps?q=52.2993567,4.7121199",North Holland
795351600,Kruisweg,765,2132 NG,Hoofddorp,Netherlands,4.7121852,52.2991961,"https://www.google.com/maps?q=52.2991961,4.7121852",North Holland
795351601,Pad om de Noord,,2132 PP,Hoofddorp,Netherlands,4.7208218,52.302176,"https://www.google.com/maps?q=52.302176,4.7208218",North Holland
795351602,Pad om de Noord,,2132 PP,Hoofddorp,Netherlands,4.720816,52.3022845,"https://www.google.com/maps?q=52.3022845,4.720816",North Holland
795351603,Pad om de Noord,,2132 PP,Hoofddorp,Netherlands,4.7208251,52.3021212,"https://www.google.com/maps?q=52.3021212,4.7208251",North Holland
795351604,Pad om de Noord,,2132 PP,Hoofddorp,Netherlands,4.7208248,52.3022297,"https://www.google.com/maps?q=52.3022297,4.7208248",North Holland
795351605,Pad om de Noord,,2132 PP,Hoofddorp,Netherlands,4.7207973,52.3023938,"https://www.google.com/maps?q=52.3023938,4.7207973",North Holland
795351606,Pad om de Noord,,2132 PP,Hoofddorp,Netherlands,4.7208264,52.3020131,"https://www.google.com/maps?q=52.3020131,4.7208264",North Holland
795351607,Pad om de Noord,,2132 PP,Hoofddorp,Netherlands,4.7207973,52.3023397,"https://www.google.com/maps?q=52.3023397,4.7207973",North Holland
795351608,Pad om de Noord,,2132 PP,Hoofddorp,Netherlands,4.7208128,52.3020675,"https://www.google.com/maps?q=52.3020675,4.7208128",North Holland
795351609,Rijnlanderweg,795,2132 NK,Hoofddorp,Netherlands,4.7226693,52.300664,"https://www.google.com/maps?q=52.300664,4.7226693",North Holland
795351610,Pad om de Noord,,2132 PP,Hoofddorp,Netherlands,4.7226386,52.3007744,"https://www.google.com/maps?q=52.3007744,4.7226386",North Holland
795351611,Pad om de Noord,,2132 PP,Hoofddorp,Netherlands,4.7225829,52.3010448,"https://www.google.com/maps?q=52.3010448,4.7225829",North Holland
795351612,Pad om de Noord,,2132 PP,Hoofddorp,Netherlands,4.7223896,52.3011517,"https://www.google.com/maps?q=52.3011517,4.7223896",North Holland
795351613,Pad om de Noord,,2132 PP,Hoofddorp,Netherlands,4.7226197,52.3008819,"https://www.google.com/maps?q=52.3008819,4.7226197",North Holland
795351614,Pad om de Noord,,2132 PP,Hoofddorp,Netherlands,4.7225893,52.3009925,"https://www.google.com/maps?q=52.3009925,4.7225893",North Holland
795351615,Pad om de Noord,,2132 PP,Hoofddorp,Netherlands,4.7224872,52.3010996,"https://www.google.com/maps?q=52.3010996,4.7224872",North Holland
795351616,Pad om de Noord,,2132 PP,Hoofddorp,Netherlands,4.7226315,52.3008289,"https://www.google.com/maps?q=52.3008289,4.7226315",North Holland
795351617,Pad om de Noord,,2132 PP,Hoofddorp,Netherlands,4.7225733,52.3009385,"https://www.google.com/maps?q=52.3009385,4.7225733",North Holland
795351618,Pad om de Noord,,2132 PP,Hoofddorp,Netherlands,4.72262,52.3007208,"https://www.google.com/maps?q=52.3007208,4.72262",North Holland
795351619,Pad om de Noord,,2132 PP,Hoofddorp,Netherlands,4.7222896,52.301204,"https://www.google.com/maps?q=52.301204,4.7222896",North Holland
795351620,Pad om de Noord,,2132 PP,Hoofddorp,Netherlands,4.7220918,52.3013125,"https://www.google.com/maps?q=52.3013125,4.7220918",North Holland
795351621,Pad om de Noord,,2132 PP,Hoofddorp,Netherlands,4.7218903,52.3014195,"https://www.google.com/maps?q=52.3014195,4.7218903",North Holland
795351622,Pad om de Noord,,2132 PP,Hoofddorp,Netherlands,4.721497,52.3016315,"https://www.google.com/maps?q=52.3016315,4.721497",North Holland
795351623,Pad om de Noord,,2132 PP,Hoofddorp,Netherlands,4.7219902,52.3013649,"https://www.google.com/maps?q=52.3013649,4.7219902",North Holland
795351624,Pad om de Noord,,2132 PP,Hoofddorp,Netherlands,4.722191,52.3012586,"https://www.google.com/maps?q=52.3012586,4.722191",North Holland
795351625,Pad om de Noord,,2132 PP,Hoofddorp,Netherlands,4.7216949,52.3015249,"https://www.google.com/maps?q=52.3015249,4.7216949",North Holland
795351626,Pad om de Noord,,2132 PP,Hoofddorp,Netherlands,4.7217904,52.3014732,"https://www.google.com/maps?q=52.3014732,4.7217904",North Holland
795351627,Pad om de Noord,,2132 PP,Hoofddorp,Netherlands,4.7212957,52.3017414,"https://www.google.com/maps?q=52.3017414,4.7212957",North Holland
795351628,Pad om de Noord,,2132 PP,Hoofddorp,Netherlands,4.7211948,52.3017951,"https://www.google.com/maps?q=52.3017951,4.7211948",North Holland
795351629,Pad om de Noord,,2132 PP,Hoofddorp,Netherlands,4.7213976,52.3016868,"https://www.google.com/maps?q=52.3016868,4.7213976",North Holland
795351630,Pad om de Noord,,2132 PP,Hoofddorp,Netherlands,4.7215926,52.3015794,"https://www.google.com/maps?q=52.3015794,4.7215926",North Holland
795351631,Pad om de Noord,,2132 PP,Hoofddorp,Netherlands,4.7208931,52.3019599,"https://www.google.com/maps?q=52.3019599,4.7208931",North Holland
795351632,Pad om de Noord,,2132 PP,Hoofddorp,Netherlands,4.7210949,52.3018492,"https://www.google.com/maps?q=52.3018492,4.7210949",North Holland
795351633,Pad om de Noord,,2132 PP,Hoofddorp,Netherlands,4.7209966,52.3019038,"https://www.google.com/maps?q=52.3019038,4.7209966",North Holland
795351634,Pad om de Noord,,2132 PP,Hoofddorp,Netherlands,4.7199345,52.3018473,"https://www.google.com/maps?q=52.3018473,4.7199345",North Holland
795351635,Pad om de Noord,,2132 PP,Hoofddorp,Netherlands,4.7199307,52.3017936,"https://www.google.com/maps?q=52.3017936,4.7199307",North Holland
795351636,Pad om de Noord,,2132 PP,Hoofddorp,Netherlands,4.7199274,52.3017379,"https://www.google.com/maps?q=52.3017379,4.7199274",North Holland
795351637,Pad om de Noord,,2132 PP,Hoofddorp,Netherlands,4.7199844,52.3016841,"https://www.google.com/maps?q=52.3016841,4.7199844",North Holland
795351638,Pad om de Noord,,2132 PP,Hoofddorp,Netherlands,4.7199858,52.3016289,"https://www.google.com/maps?q=52.3016289,4.7199858",North Holland
795351639,Pad om de Noord,,2132 PP,Hoofddorp,Netherlands,4.7200025,52.3015741,"https://www.google.com/maps?q=52.3015741,4.7200025",North Holland
795351640,Pad om de Noord,,2132 PP,Hoofddorp,Netherlands,4.7200109,52.3015205,"https://www.google.com/maps?q=52.3015205,4.7200109",North Holland
795351641,Pad om de Noord,,2132 PP,Hoofddorp,Netherlands,4.7200038,52.3014656,"https://www.google.com/maps?q=52.3014656,4.7200038",North Holland
795351642,Pad om de Noord,,2132 PP,Hoofddorp,Netherlands,4.7200122,52.301412,"https://www.google.com/maps?q=52.301412,4.7200122",North Holland
795351643,Pad om de Noord,,2132 PP,Hoofddorp,Netherlands,4.7200089,52.3013576,"https://www.google.com/maps?q=52.3013576,4.7200089",North Holland
795351644,Rijnlanderweg,797,2132 NK,Hoofddorp,Netherlands,4.7216707,52.3000598,"https://www.google.com/maps?q=52.3000598,4.7216707",North Holland
795351645,Rijnlanderweg,811,2132 NL,Hoofddorp,Netherlands,4.7216188,52.3000048,"https://www.google.com/maps?q=52.3000048,4.7216188",North Holland
795351646,Rijnlanderweg,797,2132 NK,Hoofddorp,Netherlands,4.721647,52.3001694,"https://www.google.com/maps?q=52.3001694,4.721647",North Holland
795351647,Rijnlanderweg,797,2132 NK,Hoofddorp,Netherlands,4.7216084,52.3002774,"https://www.google.com/maps?q=52.3002774,4.7216084",North Holland
795351648,Rijnlanderweg,797,2132 NK,Hoofddorp,Netherlands,4.7216325,52.3002224,"https://www.google.com/maps?q=52.3002224,4.7216325",North Holland
795351649,Rijnlanderweg,797,2132 NK,Hoofddorp,Netherlands,4.7216631,52.300115,"https://www.google.com/maps?q=52.300115,4.7216631",North Holland
795351650,Rijnlanderweg,797,2132 NK,Hoofddorp,Netherlands,4.7216178,52.3003317,"https://www.google.com/maps?q=52.3003317,4.7216178",North Holland
795351651,Pad om de Noord,,2132 PP,Hoofddorp,Netherlands,4.7205769,52.3010319,"https://www.google.com/maps?q=52.3010319,4.7205769",North Holland
795351652,Pad om de Noord,,2132 PP,Hoofddorp,Netherlands,4.7207698,52.3009244,"https://www.google.com/maps?q=52.3009244,4.7207698",North Holland
795351653,Pad om de Noord,,2132 PP,Hoofddorp,Netherlands,4.7204767,52.3010864,"https://www.google.com/maps?q=52.3010864,4.7204767",North Holland
795351654,Pad om de Noord,,2132 PP,Hoofddorp,Netherlands,4.7202366,52.3011393,"https://www.google.com/maps?q=52.3011393,4.7202366",North Holland
795351655,Pad om de Noord,,2132 PP,Hoofddorp,Netherlands,4.7201366,52.3011934,"https://www.google.com/maps?q=52.3011934,4.7201366",North Holland
795351656,Pad om de Noord,,2132 PP,Hoofddorp,Netherlands,4.7200756,52.3012483,"https://www.google.com/maps?q=52.3012483,4.7200756",North Holland
795351657,Pad om de Noord,,2132 PP,Hoofddorp,Netherlands,4.7200337,52.3013048,"https://www.google.com/maps?q=52.3013048,4.7200337",North Holland
795351658,Rijnlanderweg,797,2132 NK,Hoofddorp,Netherlands,4.7215935,52.3003856,"https://www.google.com/maps?q=52.3003856,4.7215935",North Holland
795351659,Pad om de Noord,,2132 PP,Hoofddorp,Netherlands,4.721568,52.3004406,"https://www.google.com/maps?q=52.3004406,4.721568",North Holland
795351660,Pad om de Noord,,2132 PP,Hoofddorp,Netherlands,4.7212714,52.3006575,"https://www.google.com/maps?q=52.3006575,4.7212714",North Holland
795351661,Pad om de Noord,,2132 PP,Hoofddorp,Netherlands,4.7214669,52.3005491,"https://www.google.com/maps?q=52.3005491,4.7214669",North Holland
795351662,Pad om de Noord,,2132 PP,Hoofddorp,Netherlands,4.7215678,52.300495,"https://www.google.com/maps?q=52.300495,4.7215678",North Holland
795351663,Pad om de Noord,,2132 PP,Hoofddorp,Netherlands,4.7211685,52.30071,"https://www.google.com/maps?q=52.30071,4.7211685",North Holland
795351664,Pad om de Noord,,2132 PP,Hoofddorp,Netherlands,4.7213637,52.3006036,"https://www.google.com/maps?q=52.3006036,4.7213637",North Holland
795351665,Pad om de Noord,,2132 PP,Hoofddorp,Netherlands,4.7210679,52.3007645,"https://www.google.com/maps?q=52.3007645,4.7210679",North Holland
795351666,Pad om de Noord,,2132 PP,Hoofddorp,Netherlands,4.720678,52.3009766,"https://www.google.com/maps?q=52.3009766,4.720678",North Holland
795351667,Pad om de Noord,,2132 PP,Hoofddorp,Netherlands,4.7208717,52.3008699,"https://www.google.com/maps?q=52.3008699,4.7208717",North Holland
795351668,Pad om de Noord,,2132 PP,Hoofddorp,Netherlands,4.7209677,52.3008182,"https://www.google.com/maps?q=52.3008182,4.7209677",North Holland
795351669,Pad om de Noord,,2132 PP,Hoofddorp,Netherlands,4.7197295,52.3022378,"https://www.google.com/maps?q=52.3022378,4.7197295",North Holland
795351670,Pad om de Noord,,2132 PP,Hoofddorp,Netherlands,4.7197156,52.3023463,"https://www.google.com/maps?q=52.3023463,4.7197156",North Holland
795351671,Pad om de Noord,,2132 PP,Hoofddorp,Netherlands,4.7196872,52.3024565,"https://www.google.com/maps?q=52.3024565,4.7196872",North Holland
795351672,Pad om de Noord,,2132 PP,Hoofddorp,Netherlands,4.7196955,52.3025115,"https://www.google.com/maps?q=52.3025115,4.7196955",North Holland
795351673,Pad om de Noord,,2132 PP,Hoofddorp,Netherlands,4.7197235,52.3022921,"https://www.google.com/maps?q=52.3022921,4.7197235",North Holland
795351674,Pad om de Noord,,2132 PP,Hoofddorp,Netherlands,4.7197005,52.3025668,"https://www.google.com/maps?q=52.3025668,4.7197005",North Holland
795351675,Pad om de Noord,,2132 PP,Hoofddorp,Netherlands,4.719736,52.3024033,"https://www.google.com/maps?q=52.3024033,4.719736",North Holland
795351676,Pad om de Noord,,2132 PP,Hoofddorp,Netherlands,4.7195735,52.3026764,"https://www.google.com/maps?q=52.3026764,4.7195735",North Holland
795351677,Pad om de Noord,,2132 PP,Hoofddorp,Netherlands,4.7194725,52.3027309,"https://www.google.com/maps?q=52.3027309,4.7194725",North Holland
795351678,Pad om de Noord,,2132 PP,Hoofddorp,Netherlands,4.7197074,52.302621,"https://www.google.com/maps?q=52.302621,4.7197074",North Holland
795351679,Pad om de Noord,,2132 PP,Hoofddorp,Netherlands,4.7183063,52.3033899,"https://www.google.com/maps?q=52.3033899,4.7183063",North Holland
795351680,Pad om de Noord,,2132 PP,Hoofddorp,Netherlands,4.7185054,52.3032784,"https://www.google.com/maps?q=52.3032784,4.7185054",North Holland
795351681,Pad om de Noord,,2132 PP,Hoofddorp,Netherlands,4.7176918,52.3037166,"https://www.google.com/maps?q=52.3037166,4.7176918",North Holland
795351682,Pad om de Noord,,2132 PP,Hoofddorp,Netherlands,4.7181457,52.3034432,"https://www.google.com/maps?q=52.3034432,4.7181457",North Holland
795351683,Pad om de Noord,,2132 PP,Hoofddorp,Netherlands,4.7180438,52.3034969,"https://www.google.com/maps?q=52.3034969,4.7180438",North Holland
795351684,Pad om de Noord,,2132 PP,Hoofddorp,Netherlands,4.7179443,52.3035511,"https://www.google.com/maps?q=52.3035511,4.7179443",North Holland
795351685,Pad om de Noord,,2132 PP,Hoofddorp,Netherlands,4.7178389,52.3036056,"https://www.google.com/maps?q=52.3036056,4.7178389",North Holland
795351686,Pad om de Noord,,2132 PP,Hoofddorp,Netherlands,4.7177324,52.3036617,"https://www.google.com/maps?q=52.3036617,4.7177324",North Holland
795351687,Pad om de Noord,,2132 PP,Hoofddorp,Netherlands,4.719369,52.3027872,"https://www.google.com/maps?q=52.3027872,4.719369",North Holland
795351688,Pad om de Noord,,2132 PP,Hoofddorp,Netherlands,4.7189597,52.3030057,"https://www.google.com/maps?q=52.3030057,4.7189597",North Holland
795351689,Pad om de Noord,,2132 PP,Hoofddorp,Netherlands,4.7191675,52.302895,"https://www.google.com/maps?q=52.302895,4.7191675",North Holland
795351690,Pad om de Noord,,2132 PP,Hoofddorp,Netherlands,4.7192687,52.3028409,"https://www.google.com/maps?q=52.3028409,4.7192687",North Holland
795351691,Pad om de Noord,,2132 PP,Hoofddorp,Netherlands,4.718858,52.3030603,"https://www.google.com/maps?q=52.3030603,4.718858",North Holland
795351692,Pad om de Noord,,2132 PP,Hoofddorp,Netherlands,4.7190646,52.3029495,"https://www.google.com/maps?q=52.3029495,4.7190646",North Holland
795351693,Pad om de Noord,,2132 PP,Hoofddorp,Netherlands,4.7187572,52.3031148,"https://www.google.com/maps?q=52.3031148,4.7187572",North Holland
795351694,Pad om de Noord,,2132 PP,Hoofddorp,Netherlands,4.7185576,52.3032227,"https://www.google.com/maps?q=52.3032227,4.7185576",North Holland
795351695,Pad om de Noord,,2132 PP,Hoofddorp,Netherlands,4.7186549,52.3031685,"https://www.google.com/maps?q=52.3031685,4.7186549",North Holland
795351696,Weg om de Noord,,2132 PP,Hoofddorp,Netherlands,4.7156992,52.3036491,"https://www.google.com/maps?q=52.3036491,4.7156992",North Holland
795351697,Weg om de Noord,,2132 PP,Hoofddorp,Netherlands,4.7157052,52.3037045,"https://www.google.com/maps?q=52.3037045,4.7157052",North Holland
795351698,Pad om de Noord,,2132 PP,Hoofddorp,Netherlands,4.7187194,52.301564,"https://www.google.com/maps?q=52.301564,4.7187194",North Holland
795351699,Pad om de Noord,,2132 PP,Hoofddorp,Netherlands,4.7187063,52.3016214,"https://www.google.com/maps?q=52.3016214,4.7187063",North Holland
795351700,Pad om de Noord,,2132 PP,Hoofddorp,Netherlands,4.7186198,52.301897,"https://www.google.com/maps?q=52.301897,4.7186198",North Holland
795351701,Pad om de Noord,,2132 PP,Hoofddorp,Netherlands,4.7186815,52.3016764,"https://www.google.com/maps?q=52.3016764,4.7186815",North Holland
795351702,Pad om de Noord,,2132 PP,Hoofddorp,Netherlands,4.7186413,52.3017304,"https://www.google.com/maps?q=52.3017304,4.7186413",North Holland
795351703,Pad om de Noord,,2132 PP,Hoofddorp,Netherlands,4.7186902,52.3017855,"https://www.google.com/maps?q=52.3017855,4.7186902",North Holland
795351704,Pad om de Noord,,2132 PP,Hoofddorp,Netherlands,4.7186513,52.3018404,"https://www.google.com/maps?q=52.3018404,4.7186513",North Holland
795351705,Pad om de Noord,,2132 PP,Hoofddorp,Netherlands,4.7186549,52.3019533,"https://www.google.com/maps?q=52.3019533,4.7186549",North Holland
795351706,Pad om de Noord,,2132 PP,Hoofddorp,Netherlands,4.7183591,52.3022278,"https://www.google.com/maps?q=52.3022278,4.7183591",North Holland
795351707,Pad om de Noord,,2132 PP,Hoofddorp,Netherlands,4.7186263,52.3020084,"https://www.google.com/maps?q=52.3020084,4.7186263",North Holland
795351708,Pad om de Noord,,2132 PP,Hoofddorp,Netherlands,4.7186046,52.3020625,"https://www.google.com/maps?q=52.3020625,4.7186046",North Holland
795351709,Pad om de Noord,,2132 PP,Hoofddorp,Netherlands,4.7185761,52.3021171,"https://www.google.com/maps?q=52.3021171,4.7185761",North Holland
795351710,Pad om de Noord,,2132 PP,Hoofddorp,Netherlands,4.7184634,52.3021716,"https://www.google.com/maps?q=52.3021716,4.7184634",North Holland
795351711,Pad om de Noord,,2132 PP,Hoofddorp,Netherlands,4.7182743,52.3022832,"https://www.google.com/maps?q=52.3022832,4.7182743",North Holland
795351712,Pad om de Noord,,2132 PP,Hoofddorp,Netherlands,4.7177169,52.302556,"https://www.google.com/maps?q=52.302556,4.7177169",North Holland
795351713,Pad om de Noord,,2132 PP,Hoofddorp,Netherlands,4.7181606,52.3023376,"https://www.google.com/maps?q=52.3023376,4.7181606",North Holland
795351714,Pad om de Noord,,2132 PP,Hoofddorp,Netherlands,4.7180611,52.3023913,"https://www.google.com/maps?q=52.3023913,4.7180611",North Holland
795351715,Pad om de Noord,,2132 PP,Hoofddorp,Netherlands,4.717886,52.3024451,"https://www.google.com/maps?q=52.3024451,4.717886",North Holland
795351716,Pad om de Noord,,2132 PP,Hoofddorp,Netherlands,4.7177709,52.3024995,"https://www.google.com/maps?q=52.3024995,4.7177709",North Holland
795351717,Pad om de Noord,,2132 PP,Hoofddorp,Netherlands,4.7176721,52.3026112,"https://www.google.com/maps?q=52.3026112,4.7176721",North Holland
795351718,Pad om de Noord,,2132 PP,Hoofddorp,Netherlands,4.7171501,52.3028843,"https://www.google.com/maps?q=52.3028843,4.7171501",North Holland
795351719,Pad om de Noord,,2132 PP,Hoofddorp,Netherlands,4.7175565,52.3026657,"https://www.google.com/maps?q=52.3026657,4.7175565",North Holland
795351720,Pad om de Noord,,2132 PP,Hoofddorp,Netherlands,4.7174579,52.3027194,"https://www.google.com/maps?q=52.3027194,4.7174579",North Holland
795351721,Pad om de Noord,,2132 PP,Hoofddorp,Netherlands,4.7173681,52.3027736,"https://www.google.com/maps?q=52.3027736,4.7173681",North Holland
795351722,Pad om de Noord,,2132 PP,Hoofddorp,Netherlands,4.7172537,52.3028281,"https://www.google.com/maps?q=52.3028281,4.7172537",North Holland
795351723,Pad om de Noord,,2132 PP,Hoofddorp,Netherlands,4.717064,52.3029389,"https://www.google.com/maps?q=52.3029389,4.717064",North Holland
795351724,Pad om de Noord,,2132 PP,Hoofddorp,Netherlands,4.7165413,52.3032118,"https://www.google.com/maps?q=52.3032118,4.7165413",North Holland
795351725,Pad om de Noord,,2132 PP,Hoofddorp,Netherlands,4.7169486,52.3029933,"https://www.google.com/maps?q=52.3029933,4.7169486",North Holland
795351726,Pad om de Noord,,2132 PP,Hoofddorp,Netherlands,4.7168484,52.3030471,"https://www.google.com/maps?q=52.3030471,4.7168484",North Holland
795351727,Pad om de Noord,,2132 PP,Hoofddorp,Netherlands,4.7167592,52.3031012,"https://www.google.com/maps?q=52.3031012,4.7167592",North Holland
795351728,Pad om de Noord,,2132 PP,Hoofddorp,Netherlands,4.7166445,52.3031557,"https://www.google.com/maps?q=52.3031557,4.7166445",North Holland
795351729,Pad om de Noord,,2132 PP,Hoofddorp,Netherlands,4.7164539,52.3032673,"https://www.google.com/maps?q=52.3032673,4.7164539",North Holland
795351730,Pad om de Noord,,2132 PP,Hoofddorp,Netherlands,4.7163399,52.3033217,"https://www.google.com/maps?q=52.3033217,4.7163399",North Holland
795351731,Pad om de Noord,,2132 PP,Hoofddorp,Netherlands,4.7162403,52.3033755,"https://www.google.com/maps?q=52.3033755,4.7162403",North Holland
795351732,Pad om de Noord,,2132 PP,Hoofddorp,Netherlands,4.7161519,52.3034296,"https://www.google.com/maps?q=52.3034296,4.7161519",North Holland
795351733,Pad om de Noord,,2132 PP,Hoofddorp,Netherlands,4.7160375,52.3034842,"https://www.google.com/maps?q=52.3034842,4.7160375",North Holland
795351734,Pad om de Noord,,2132 PP,Hoofddorp,Netherlands,4.7159295,52.3035403,"https://www.google.com/maps?q=52.3035403,4.7159295",North Holland
795351735,Weg om de Noord,,2132 PP,Hoofddorp,Netherlands,4.7158826,52.3035948,"https://www.google.com/maps?q=52.3035948,4.7158826",North Holland
795351736,Pad om de Noord,,2132 PP,Hoofddorp,Netherlands,4.7163463,52.3047044,"https://www.google.com/maps?q=52.3047044,4.7163463",North Holland
795351737,Pad om de Noord,,2132 PP,Hoofddorp,Netherlands,4.7163125,52.3047603,"https://www.google.com/maps?q=52.3047603,4.7163125",North Holland
795351738,Pad om de Noord,,2132 PP,Hoofddorp,Netherlands,4.7163869,52.3045944,"https://www.google.com/maps?q=52.3045944,4.7163869",North Holland
795351739,Pad om de Noord,,2132 PP,Hoofddorp,Netherlands,4.7164063,52.3045386,"https://www.google.com/maps?q=52.3045386,4.7164063",North Holland
795351740,Pad om de Noord,,2132 PP,Hoofddorp,Netherlands,4.716412,52.3044825,"https://www.google.com/maps?q=52.3044825,4.716412",North Holland
795351741,Pad om de Noord,,2132 PP,Hoofddorp,Netherlands,4.7164347,52.304428,"https://www.google.com/maps?q=52.304428,4.7164347",North Holland
795351742,Pad om de Noord,,2132 PP,Hoofddorp,Netherlands,4.7164727,52.304373,"https://www.google.com/maps?q=52.304373,4.7164727",North Holland
795351743,Pad om de Noord,,2132 PP,Hoofddorp,Netherlands,4.7165974,52.3040988,"https://www.google.com/maps?q=52.3040988,4.7165974",North Holland
795351744,Pad om de Noord,,2132 PP,Hoofddorp,Netherlands,4.7166162,52.3040414,"https://www.google.com/maps?q=52.3040414,4.7166162",North Holland
795351745,Pad om de Noord,,2132 PP,Hoofddorp,Netherlands,4.7166255,52.3039869,"https://www.google.com/maps?q=52.3039869,4.7166255",North Holland
795351746,Pad om de Noord,,2132 PP,Hoofddorp,Netherlands,4.7166584,52.3039313,"https://www.google.com/maps?q=52.3039313,4.7166584",North Holland
795351747,Pad om de Noord,,2132 PP,Hoofddorp,Netherlands,4.7162826,52.3048706,"https://www.google.com/maps?q=52.3048706,4.7162826",North Holland
795351748,Pad om de Noord,,2132 PP,Hoofddorp,Netherlands,4.7162779,52.3048147,"https://www.google.com/maps?q=52.3048147,4.7162779",North Holland
795351749,Pad om de Noord,,2132 PP,Hoofddorp,Netherlands,4.7163624,52.3046497,"https://www.google.com/maps?q=52.3046497,4.7163624",North Holland
795351750,Pad om de Noord,,2132 PP,Hoofddorp,Netherlands,4.7164881,52.3043179,"https://www.google.com/maps?q=52.3043179,4.7164881",North Holland
795351751,Pad om de Noord,,2132 PP,Hoofddorp,Netherlands,4.7165333,52.304263,"https://www.google.com/maps?q=52.304263,4.7165333",North Holland
795351752,Pad om de Noord,,2132 PP,Hoofddorp,Netherlands,4.7165444,52.3042078,"https://www.google.com/maps?q=52.3042078,4.7165444",North Holland
795351753,Pad om de Noord,,2132 PP,Hoofddorp,Netherlands,4.7165834,52.3041529,"https://www.google.com/maps?q=52.3041529,4.7165834",North Holland
795351754,Pad om de Noord,,2132 PP,Hoofddorp,Netherlands,4.7166612,52.3038771,"https://www.google.com/maps?q=52.3038771,4.7166612",North Holland
795351755,Pad om de Noord,,2132 PP,Hoofddorp,Netherlands,4.716699,52.3038231,"https://www.google.com/maps?q=52.3038231,4.716699",North Holland
795351756,Pad om de Noord,,2132 PP,Hoofddorp,Netherlands,4.7167125,52.3037653,"https://www.google.com/maps?q=52.3037653,4.7167125",North Holland
795351757,Rijnlanderweg,855A,2132 NM,Hoofddorp,Netherlands,4.715915,52.2988938,"https://www.google.com/maps?q=52.2988938,4.715915",North Holland
795351758,Rijnlanderweg,855A,2132 NM,Hoofddorp,Netherlands,4.7159192,52.298956,"https://www.google.com/maps?q=52.298956,4.7159192",North Holland
795351759,Rijnlanderweg,855A,2132 NM,Hoofddorp,Netherlands,4.7159175,52.2990214,"https://www.google.com/maps?q=52.2990214,4.7159175",North Holland
795351760,Rijnlanderweg,855A,2132 NM,Hoofddorp,Netherlands,4.7159196,52.2990818,"https://www.google.com/maps?q=52.2990818,4.7159196",North Holland
795351761,Rijnlanderweg,855A,2132 NM,Hoofddorp,Netherlands,4.7159215,52.2991462,"https://www.google.com/maps?q=52.2991462,4.7159215",North Holland
795351762,Kruisweg,755F,2132 NE,Hoofddorp,Netherlands,4.7147827,52.2988855,"https://www.google.com/maps?q=52.2988855,4.7147827",North Holland
795351763,Kruisweg,755F,2132 NE,Hoofddorp,Netherlands,4.714753,52.2989474,"https://www.google.com/maps?q=52.2989474,4.714753",North Holland
795351764,Kruisweg,755F,2132 NE,Hoofddorp,Netherlands,4.7147243,52.2990126,"https://www.google.com/maps?q=52.2990126,4.7147243",North Holland
795351765,Kruisweg,755F,2132 NE,Hoofddorp,Netherlands,4.7147033,52.2990728,"https://www.google.com/maps?q=52.2990728,4.7147033",North Holland
795351766,Kruisweg,755F,2132 NE,Hoofddorp,Netherlands,4.7147637,52.2991376,"https://www.google.com/maps?q=52.2991376,4.7147637",North Holland
795351767,Rijnlanderweg,855A,2132 NM,Hoofddorp,Netherlands,4.7159109,52.2988312,"https://www.google.com/maps?q=52.2988312,4.7159109",North Holland
795351768,Rijnlanderweg,855A,2132 NM,Hoofddorp,Netherlands,4.7165096,52.2983927,"https://www.google.com/maps?q=52.2983927,4.7165096",North Holland
795351769,Rijnlanderweg,855A,2132 NM,Hoofddorp,Netherlands,4.7163937,52.2984538,"https://www.google.com/maps?q=52.2984538,4.7163937",North Holland
795351770,Kruisweg,755F,2132 NE,Hoofddorp,Netherlands,4.7146826,52.2993308,"https://www.google.com/maps?q=52.2993308,4.7146826",North Holland
795351771,Rijnlanderweg,855A,2132 NM,Hoofddorp,Netherlands,4.7169676,52.298145,"https://www.google.com/maps?q=52.298145,4.7169676",North Holland
795351772,Kruisweg,755F,2132 NE,Hoofddorp,Netherlands,4.7147101,52.299267,"https://www.google.com/maps?q=52.299267,4.7147101",North Holland
795351773,Kruisweg,755F,2132 NE,Hoofddorp,Netherlands,4.7147379,52.2992041,"https://www.google.com/maps?q=52.2992041,4.7147379",North Holland
795351774,Rijnlanderweg,855A,2132 NM,Hoofddorp,Netherlands,4.7168576,52.2982061,"https://www.google.com/maps?q=52.2982061,4.7168576",North Holland
795351775,Rijnlanderweg,855A,2132 NM,Hoofddorp,Netherlands,4.7162813,52.2985194,"https://www.google.com/maps?q=52.2985194,4.7162813",North Holland
795351776,Rijnlanderweg,855A,2132 NM,Hoofddorp,Netherlands,4.7167416,52.2982689,"https://www.google.com/maps?q=52.2982689,4.7167416",North Holland
795351777,Rijnlanderweg,855A,2132 NM,Hoofddorp,Netherlands,4.7161629,52.2985809,"https://www.google.com/maps?q=52.2985809,4.7161629",North Holland
795351778,Rijnlanderweg,855A,2132 NM,Hoofddorp,Netherlands,4.7159943,52.2987071,"https://www.google.com/maps?q=52.2987071,4.7159943",North Holland
795351779,Kruisweg,755F,2132 NE,Hoofddorp,Netherlands,4.7143318,52.2995162,"https://www.google.com/maps?q=52.2995162,4.7143318",North Holland
795351780,Rijnlanderweg,855A,2132 NM,Hoofddorp,Netherlands,4.7165377,52.2983298,"https://www.google.com/maps?q=52.2983298,4.7165377",North Holland
795351781,Rijnlanderweg,855A,2132 NM,Hoofddorp,Netherlands,4.7160513,52.2986424,"https://www.google.com/maps?q=52.2986424,4.7160513",North Holland
795351782,Kruisweg,755F,2132 NE,Hoofddorp,Netherlands,4.7146527,52.299392,"https://www.google.com/maps?q=52.299392,4.7146527",North Holland
795351783,Kruisweg,755F,2132 NE,Hoofddorp,Netherlands,4.7145419,52.2994527,"https://www.google.com/maps?q=52.2994527,4.7145419",North Holland
795351784,Rijnlanderweg,855A,2132 NM,Hoofddorp,Netherlands,4.7174407,52.2978953,"https://www.google.com/maps?q=52.2978953,4.7174407",North Holland
795351785,Rijnlanderweg,855A,2132 NM,Hoofddorp,Netherlands,4.7159058,52.298767,"https://www.google.com/maps?q=52.298767,4.7159058",North Holland
795351786,Rijnlanderweg,833,2132 NM,Hoofddorp,Netherlands,4.717555,52.2978321,"https://www.google.com/maps?q=52.2978321,4.717555",North Holland
795351787,Rijnlanderweg,833,2132 NM,Hoofddorp,Netherlands,4.7176677,52.2977681,"https://www.google.com/maps?q=52.2977681,4.7176677",North Holland
795351788,Rijnlanderweg,855B,2132 NM,Hoofddorp,Netherlands,4.7177425,52.2973923,"https://www.google.com/maps?q=52.2973923,4.7177425",North Holland
795351789,Rijnlanderweg,855B,2132 NM,Hoofddorp,Netherlands,4.717713,52.2974564,"https://www.google.com/maps?q=52.2974564,4.717713",North Holland
795351790,Rijnlanderweg,833,2132 NM,Hoofddorp,Netherlands,4.7176932,52.2977094,"https://www.google.com/maps?q=52.2977094,4.7176932",North Holland
795351791,Rijnlanderweg,833,2132 NM,Hoofddorp,Netherlands,4.7177241,52.297644,"https://www.google.com/maps?q=52.297644,4.7177241",North Holland
795351792,Rijnlanderweg,855A,2132 NM,Hoofddorp,Netherlands,4.7170946,52.2980798,"https://www.google.com/maps?q=52.2980798,4.7170946",North Holland
795351793,Rijnlanderweg,833,2132 NM,Hoofddorp,Netherlands,4.7177481,52.2975859,"https://www.google.com/maps?q=52.2975859,4.7177481",North Holland
795351794,Rijnlanderweg,833,2132 NM,Hoofddorp,Netherlands,4.7177806,52.2975205,"https://www.google.com/maps?q=52.2975205,4.7177806",North Holland
795351795,Rijnlanderweg,855A,2132 NM,Hoofddorp,Netherlands,4.7172036,52.298019,"https://www.google.com/maps?q=52.298019,4.7172036",North Holland
795351796,Rijnlanderweg,855B,2132 NM,Hoofddorp,Netherlands,4.7177689,52.2973293,"https://www.google.com/maps?q=52.2973293,4.7177689",North Holland
795351797,Weg om de Noord,,2132 PP,Hoofddorp,Netherlands,4.7138474,52.2998257,"https://www.google.com/maps?q=52.2998257,4.7138474",North Holland
795351798,Rijnlanderweg,855A,2132 NM,Hoofddorp,Netherlands,4.717321,52.2979585,"https://www.google.com/maps?q=52.2979585,4.717321",North Holland
795351799,Weg om de Noord,,2132 PP,Hoofddorp,Netherlands,4.7126347,52.3007641,"https://www.google.com/maps?q=52.3007641,4.7126347",North Holland
795351800,Weg om de Noord,,2132 PP,Hoofddorp,Netherlands,4.7130366,52.3002608,"https://www.google.com/maps?q=52.3002608,4.7130366",North Holland
795351801,Weg om de Noord,,2132 PP,Hoofddorp,Netherlands,4.7126593,52.3007003,"https://www.google.com/maps?q=52.3007003,4.7126593",North Holland
795351802,Weg om de Noord,,2132 PP,Hoofddorp,Netherlands,4.7137315,52.2998868,"https://www.google.com/maps?q=52.2998868,4.7137315",North Holland
795351803,Weg om de Noord,,2132 PP,Hoofddorp,Netherlands,4.7126853,52.3006374,"https://www.google.com/maps?q=52.3006374,4.7126853",North Holland
795351804,Kruisweg,755F,2132 NE,Hoofddorp,Netherlands,4.7143121,52.2995772,"https://www.google.com/maps?q=52.2995772,4.7143121",North Holland
795351805,Weg om de Noord,,2132 PP,Hoofddorp,Netherlands,4.7129245,52.3003243,"https://www.google.com/maps?q=52.3003243,4.7129245",North Holland
795351806,Weg om de Noord,,2132 PP,Hoofddorp,Netherlands,4.7127109,52.3005752,"https://www.google.com/maps?q=52.3005752,4.7127109",North Holland
795351807,Weg om de Noord,,2132 PP,Hoofddorp,Netherlands,4.7136135,52.2999523,"https://www.google.com/maps?q=52.2999523,4.7136135",North Holland
795351808,Weg om de Noord,,2132 PP,Hoofddorp,Netherlands,4.7141945,52.2996383,"https://www.google.com/maps?q=52.2996383,4.7141945",North Holland
795351809,Weg om de Noord,,2132 PP,Hoofddorp,Netherlands,4.7126509,52.3005129,"https://www.google.com/maps?q=52.3005129,4.7126509",North Holland
795351810,Weg om de Noord,,2132 PP,Hoofddorp,Netherlands,4.7127651,52.3004497,"https://www.google.com/maps?q=52.3004497,4.7127651",North Holland
795351811,Weg om de Noord,,2132 PP,Hoofddorp,Netherlands,4.7134982,52.3000139,"https://www.google.com/maps?q=52.3000139,4.7134982",North Holland
795351812,Weg om de Noord,,2132 PP,Hoofddorp,Netherlands,4.7140756,52.299701,"https://www.google.com/maps?q=52.299701,4.7140756",North Holland
795351813,Weg om de Noord,,2132 PP,Hoofddorp,Netherlands,4.712555,52.3009515,"https://www.google.com/maps?q=52.3009515,4.712555",North Holland
795351814,Weg om de Noord,,2132 PP,Hoofddorp,Netherlands,4.7128058,52.300387,"https://www.google.com/maps?q=52.300387,4.7128058",North Holland
795351815,Weg om de Noord,,2132 PP,Hoofddorp,Netherlands,4.7133791,52.3000742,"https://www.google.com/maps?q=52.3000742,4.7133791",North Holland
795351816,Weg om de Noord,,2132 PP,Hoofddorp,Netherlands,4.7132675,52.300136,"https://www.google.com/maps?q=52.300136,4.7132675",North Holland
795351817,Weg om de Noord,,2132 PP,Hoofddorp,Netherlands,4.7125818,52.3008893,"https://www.google.com/maps?q=52.3008893,4.7125818",North Holland
795351818,Weg om de Noord,,2132 PP,Hoofddorp,Netherlands,4.7139599,52.2997625,"https://www.google.com/maps?q=52.2997625,4.7139599",North Holland
795351819,Weg om de Noord,,2132 PP,Hoofddorp,Netherlands,4.7131521,52.3001984,"https://www.google.com/maps?q=52.3001984,4.7131521",North Holland
795351820,Weg om de Noord,,2132 PP,Hoofddorp,Netherlands,4.712607,52.300828,"https://www.google.com/maps?q=52.300828,4.712607",North Holland
795351821,Pad om de Noord,,2132 PP,Hoofddorp,Netherlands,4.7169339,52.3004071,"https://www.google.com/maps?q=52.3004071,4.7169339",North Holland
795351822,Pad om de Noord,,2132 PP,Hoofddorp,Netherlands,4.7169613,52.3003442,"https://www.google.com/maps?q=52.3003442,4.7169613",North Holland
795351823,Pad om de Noord,,2132 PP,Hoofddorp,Netherlands,4.7169859,52.3002812,"https://www.google.com/maps?q=52.3002812,4.7169859",North Holland
795351824,Pad om de Noord,,2132 PP,Hoofddorp,Netherlands,4.7179516,52.3002882,"https://www.google.com/maps?q=52.3002882,4.7179516",North Holland
795351825,Pad om de Noord,,2132 PP,Hoofddorp,Netherlands,4.7179434,52.300352,"https://www.google.com/maps?q=52.300352,4.7179434",North Holland
